{
  "type": "FeatureCollection",
  "generator": "overpass-ide",
  "copyright": "The data included in this document is from www.openstreetmap.org. The data is made available under ODbL.",
  "timestamp": "2023-07-05T03:13:00Z",
  "features": [
    {
      "type": "Feature",
      "properties": {
        "@id": "relation/3616285",
        "addr:city": "Cusco",
        "addr:housenumber": "223",
        "addr:street": "Plazoleta de Nazarenas",
        "brand": "Palacio Nazarenas",
        "building": "yes",
        "email": "perures.fits@belmond.com",
        "name": "Palacio Nazarenas",
        "operator": "Belmond",
        "phone": "+51 84 58 2222",
        "stars": "5",
        "tourism": "hotel",
        "type": "multipolygon",
        "website": "https://www.belmond.com/es/palacio-nazarenas-cusco/",
        "@geometry": "center"
      },
      "geometry": {
        "type": "Point",
        "coordinates": [
          -71.9768863,
          -13.5148737
        ]
      },
      "id": "relation/3616285"
    },
    {
      "type": "Feature",
      "properties": {
        "@id": "relation/3616286",
        "building": "yes",
        "height": "10",
        "name": "Monasterio",
        "operator": "Belmond",
        "stars": "5",
        "tourism": "hotel",
        "type": "multipolygon",
        "website": "http://www.monasteriohotel.com",
        "@geometry": "center"
      },
      "geometry": {
        "type": "Point",
        "coordinates": [
          -71.9764984,
          -13.5153157
        ]
      },
      "id": "relation/3616286"
    },
    {
      "type": "Feature",
      "properties": {
        "@id": "relation/8910260",
        "brand": "Hilton",
        "building": "yes",
        "internet_access": "wlan",
        "name": "Hilton Garden Inn Cusco",
        "tourism": "hotel",
        "type": "multipolygon",
        "@geometry": "center"
      },
      "geometry": {
        "type": "Point",
        "coordinates": [
          -71.9854584,
          -13.5154632
        ]
      },
      "id": "relation/8910260"
    },
    {
      "type": "Feature",
      "properties": {
        "@id": "relation/8928756",
        "brand": "JW Marriott",
        "building": "yes",
        "fax": "+51 84 582201",
        "height": "30",
        "internet_access": "wlan",
        "name": "JW Marriott Hotel Cusco",
        "operator": "Marriott International, Inc.",
        "phone": "+51 84 582200",
        "stars": "5",
        "tourism": "hotel",
        "type": "multipolygon",
        "website": "https://www.marriott.com/hotels/travel/cuzmc-jw-marriott-hotel-cusco/",
        "@geometry": "center"
      },
      "geometry": {
        "type": "Point",
        "coordinates": [
          -71.9756905,
          -13.5169157
        ]
      },
      "id": "relation/8928756"
    },
    {
      "type": "Feature",
      "properties": {
        "@id": "relation/9045284",
        "building": "yes",
        "name": "Hotel Xima",
        "tourism": "hotel",
        "type": "multipolygon",
        "@geometry": "center"
      },
      "geometry": {
        "type": "Point",
        "coordinates": [
          -71.9729845,
          -13.5250791
        ]
      },
      "id": "relation/9045284"
    },
    {
      "type": "Feature",
      "properties": {
        "@id": "relation/10968556",
        "bar": "yes",
        "building": "yes",
        "internet_access": "wlan",
        "name": "Belmond Hotel Rio Sagrado",
        "phone": "+51 84 201631",
        "rooms": "23",
        "tourism": "hotel",
        "type": "multipolygon",
        "website": "https://www.belmond.com/hotels/south-america/peru/sacred-valley/belmond-hotel-rio-sagrado/",
        "@geometry": "center"
      },
      "geometry": {
        "type": "Point",
        "coordinates": [
          -72.1449099,
          -13.2903234
        ]
      },
      "id": "relation/10968556"
    },
    {
      "type": "Feature",
      "properties": {
        "@id": "way/36115454",
        "alt_name": "Machu Picchu Sanctuary Lodge Hotel",
        "building": "yes",
        "name": "Belmond Sanctuary Lodge",
        "source": "Bing",
        "tourism": "hotel",
        "@geometry": "center"
      },
      "geometry": {
        "type": "Point",
        "coordinates": [
          -72.5429184,
          -13.1660973
        ]
      },
      "id": "way/36115454"
    },
    {
      "type": "Feature",
      "properties": {
        "@id": "way/85617547",
        "addr:city": "Cusco",
        "addr:housenumber": "1080",
        "addr:street": "Avenida Pardo",
        "brand": "José Antonio",
        "building": "yes",
        "internet_access": "wlan",
        "internet_access:fee": "no",
        "name": "Hotel José Antonio",
        "operator": "Hotel José Antonio",
        "rooms": "126",
        "stars": "3S",
        "tourism": "hotel",
        "website": "https://www.hotelesjoseantonio.com/es/hotel-joseacusco-en-cusco/",
        "@geometry": "center"
      },
      "geometry": {
        "type": "Point",
        "coordinates": [
          -71.9724323,
          -13.5257387
        ]
      },
      "id": "way/85617547"
    },
    {
      "type": "Feature",
      "properties": {
        "@id": "way/209387731",
        "name": "Sol y Luna",
        "tourism": "hotel",
        "@geometry": "center"
      },
      "geometry": {
        "type": "Point",
        "coordinates": [
          -72.1292074,
          -13.2967506
        ]
      },
      "id": "way/209387731"
    },
    {
      "type": "Feature",
      "properties": {
        "@id": "way/255742547",
        "addr:city": "Cusco",
        "addr:housenumber": "207",
        "addr:street": "Siete Ventanas",
        "brand": "Siete Ventanas",
        "building": "yes",
        "contact:twitter": "https://twitter.com/hotel7ventanas",
        "email": "info@hotelsieteventanas.com",
        "internet_access": "wlan",
        "internet_access:fee": "no",
        "name": "Hotel Siete Ventanas",
        "operator": "Hotel Siete Ventanas",
        "phone": "+51 084 241917",
        "tourism": "hotel",
        "website": "http://hotelsieteventanas.com/",
        "@geometry": "center"
      },
      "geometry": {
        "type": "Point",
        "coordinates": [
          -71.9749618,
          -13.5162922
        ]
      },
      "id": "way/255742547"
    },
    {
      "type": "Feature",
      "properties": {
        "@id": "way/275842310",
        "addr:city": "Wanchaq",
        "addr:housenumber": "A-3",
        "addr:street": "Calle Hilario Mendivil",
        "building": "yes",
        "contact:facebook": "https://www.facebook.com/pages/Kantu-Hospedaje/380686931992084",
        "name": "Kantu Hospedaje",
        "note": "Muy cerca al aeropuerto y a 10 minutos del centro del Cusco, ofrece a usted un lugar placentero, cómodo y bien equipado - Habitaciones con Baño Privado (Agua Caliente) - Televisión por Cable - Amplio Garaje Privado - Internet WiFi SIEMPRE ABIERTO",
        "phone": "+51 84 243079;+51 974364442",
        "tourism": "hotel",
        "@geometry": "center"
      },
      "geometry": {
        "type": "Point",
        "coordinates": [
          -71.9410137,
          -13.5402389
        ]
      },
      "id": "way/275842310"
    },
    {
      "type": "Feature",
      "properties": {
        "@id": "way/323168047",
        "building": "yes",
        "name": "Hampay Tika",
        "tourism": "hotel",
        "@geometry": "center"
      },
      "geometry": {
        "type": "Point",
        "coordinates": [
          -72.2806348,
          -13.2490458
        ]
      },
      "id": "way/323168047"
    },
    {
      "type": "Feature",
      "properties": {
        "@id": "way/335084940",
        "name": "Via Urubamba",
        "tourism": "hotel",
        "@geometry": "center"
      },
      "geometry": {
        "type": "Point",
        "coordinates": [
          -72.1353413,
          -13.2973172
        ]
      },
      "id": "way/335084940"
    },
    {
      "type": "Feature",
      "properties": {
        "@id": "way/356401174",
        "addr:city": "Machu Picchu Pueblo",
        "addr:housenumber": "1-3",
        "addr:street": "Avenida Hermanos Ayar",
        "brand": "Sumaq Hotel",
        "building": "yes",
        "building:levels": "4",
        "height": "11",
        "name": "Sumaq Hotel",
        "operator": "Sumaq Hotel",
        "phone": "+51 84 211059",
        "stars": "3",
        "tourism": "hotel",
        "website": "https://www.machupicchuhotels-sumaq.com/",
        "@geometry": "center"
      },
      "geometry": {
        "type": "Point",
        "coordinates": [
          -72.5281612,
          -13.1540941
        ]
      },
      "id": "way/356401174"
    },
    {
      "type": "Feature",
      "properties": {
        "@id": "way/379231966",
        "building": "yes",
        "name": "Hotel Condor",
        "tourism": "hotel",
        "@geometry": "center"
      },
      "geometry": {
        "type": "Point",
        "coordinates": [
          -71.9298436,
          -13.5311879
        ]
      },
      "id": "way/379231966"
    },
    {
      "type": "Feature",
      "properties": {
        "@id": "node/415164647",
        "name": "Hostal Quillabamba",
        "tourism": "hotel"
      },
      "geometry": {
        "type": "Point",
        "coordinates": [
          -72.6959075,
          -12.8658579
        ]
      },
      "id": "node/415164647"
    },
    {
      "type": "Feature",
      "properties": {
        "@id": "way/432767904",
        "name": "Anka",
        "tourism": "hotel",
        "@geometry": "center"
      },
      "geometry": {
        "type": "Point",
        "coordinates": [
          -71.5968836,
          -13.3169125
        ]
      },
      "id": "way/432767904"
    },
    {
      "type": "Feature",
      "properties": {
        "@id": "way/432767907",
        "name": "Tres Cruces",
        "tourism": "hotel",
        "@geometry": "center"
      },
      "geometry": {
        "type": "Point",
        "coordinates": [
          -71.596148,
          -13.3177061
        ]
      },
      "id": "way/432767907"
    },
    {
      "type": "Feature",
      "properties": {
        "@id": "way/432769093",
        "name": "Rey Carlos III",
        "tourism": "hotel",
        "@geometry": "center"
      },
      "geometry": {
        "type": "Point",
        "coordinates": [
          -71.5958739,
          -13.3169561
        ]
      },
      "id": "way/432769093"
    },
    {
      "type": "Feature",
      "properties": {
        "@id": "way/445252045",
        "name": "Hotel Derrama Magisterial",
        "tourism": "hotel",
        "@geometry": "center"
      },
      "geometry": {
        "type": "Point",
        "coordinates": [
          -71.8792859,
          -13.5421132
        ]
      },
      "id": "way/445252045"
    },
    {
      "type": "Feature",
      "properties": {
        "@id": "way/457637653",
        "addr:city": "Cusco",
        "addr:housenumber": "128",
        "addr:street": "Puente Rosario",
        "building": "hotel",
        "name": "Q'armen Q'a Hotel",
        "phone": "+51 84 225005",
        "tourism": "hotel",
        "website": "http://www.qarmenqahotel.com/",
        "@geometry": "center"
      },
      "geometry": {
        "type": "Point",
        "coordinates": [
          -71.9768188,
          -13.5208036
        ]
      },
      "id": "way/457637653"
    },
    {
      "type": "Feature",
      "properties": {
        "@id": "node/491524558",
        "tourism": "hotel"
      },
      "geometry": {
        "type": "Point",
        "coordinates": [
          -71.9840393,
          -13.5268197
        ]
      },
      "id": "node/491524558"
    },
    {
      "type": "Feature",
      "properties": {
        "@id": "node/491524574",
        "tourism": "hotel"
      },
      "geometry": {
        "type": "Point",
        "coordinates": [
          -71.9844255,
          -13.527045
        ]
      },
      "id": "node/491524574"
    },
    {
      "type": "Feature",
      "properties": {
        "@id": "way/511437136",
        "building": "yes",
        "name": "Hotel Tambo del Inka",
        "stars": "5",
        "tourism": "hotel",
        "@geometry": "center"
      },
      "geometry": {
        "type": "Point",
        "coordinates": [
          -72.1176167,
          -13.3097013
        ]
      },
      "id": "way/511437136"
    },
    {
      "type": "Feature",
      "properties": {
        "@id": "way/528516951",
        "addr:city": "Cusco",
        "addr:housenumber": "250",
        "addr:street": "Calle Arequipa",
        "building": "yes",
        "internet_access": "wlan",
        "internet_access:fee": "no",
        "name": "Tukuna Hostel",
        "operator": "Tukuna Hostel",
        "smoking": "no",
        "stars": "2",
        "tourism": "hotel",
        "@geometry": "center"
      },
      "geometry": {
        "type": "Point",
        "coordinates": [
          -71.9768251,
          -13.5182594
        ]
      },
      "id": "way/528516951"
    },
    {
      "type": "Feature",
      "properties": {
        "@id": "way/530632256",
        "email": "liliumreservas@gmail.com",
        "internet_access": "yes",
        "internet_access:fee": "no",
        "name": "Hotel Lilium Valley Ollantaytambo",
        "phone": "+51 986861840",
        "rooms": "25",
        "tourism": "hotel",
        "website": "https://hotel-lilium-valley.negocio.site/",
        "@geometry": "center"
      },
      "geometry": {
        "type": "Point",
        "coordinates": [
          -72.2615922,
          -13.260148
        ]
      },
      "id": "way/530632256"
    },
    {
      "type": "Feature",
      "properties": {
        "@id": "way/530882833",
        "building": "yes",
        "name": "Tunupa Lodge",
        "tourism": "hotel",
        "@geometry": "center"
      },
      "geometry": {
        "type": "Point",
        "coordinates": [
          -72.2674605,
          -13.2617738
        ]
      },
      "id": "way/530882833"
    },
    {
      "type": "Feature",
      "properties": {
        "@id": "way/644568031",
        "addr:city": "Cusco",
        "addr:housenumber": "310",
        "addr:neighbourhood": "Cusco",
        "addr:postcode": "08002",
        "addr:street": "Calle Suecia",
        "building": "yes",
        "internet_access": "wlan",
        "internet_access:fee": "no",
        "name": "Turi Wasi House Boutique",
        "rooms": "18",
        "tourism": "hotel",
        "@geometry": "center"
      },
      "geometry": {
        "type": "Point",
        "coordinates": [
          -71.9788886,
          -13.5156164
        ]
      },
      "id": "way/644568031"
    },
    {
      "type": "Feature",
      "properties": {
        "@id": "way/730143829",
        "building": "yes",
        "name": "Yellow River Lodge",
        "rooms": "3",
        "tourism": "hotel",
        "@geometry": "center"
      },
      "geometry": {
        "type": "Point",
        "coordinates": [
          -72.6226594,
          -13.0744213
        ]
      },
      "id": "way/730143829"
    },
    {
      "type": "Feature",
      "properties": {
        "@id": "way/745995408",
        "name": "Hotel Mabey Urubamba",
        "tourism": "hotel",
        "@geometry": "center"
      },
      "geometry": {
        "type": "Point",
        "coordinates": [
          -72.1267615,
          -13.3000986
        ]
      },
      "id": "way/745995408"
    },
    {
      "type": "Feature",
      "properties": {
        "@id": "node/775337402",
        "name": "El Albergue",
        "tourism": "hotel"
      },
      "geometry": {
        "type": "Point",
        "coordinates": [
          -72.2706097,
          -13.2627204
        ]
      },
      "id": "node/775337402"
    },
    {
      "type": "Feature",
      "properties": {
        "@id": "node/775337403",
        "name": "Hotel San Agustin Monasterio de la Recoleta",
        "tourism": "hotel"
      },
      "geometry": {
        "type": "Point",
        "coordinates": [
          -72.1072671,
          -13.3096402
        ]
      },
      "id": "node/775337403"
    },
    {
      "type": "Feature",
      "properties": {
        "@id": "node/775346022",
        "name": "Eureka",
        "tourism": "hotel"
      },
      "geometry": {
        "type": "Point",
        "coordinates": [
          -71.9737879,
          -13.5162098
        ]
      },
      "id": "node/775346022"
    },
    {
      "type": "Feature",
      "properties": {
        "@id": "way/785952199",
        "addr:city": "Sicuani",
        "addr:housenumber": "420",
        "addr:street": "Avenida Confederación",
        "building": "yes",
        "name": "Wilkamayu Hotel",
        "tourism": "hotel",
        "@geometry": "center"
      },
      "geometry": {
        "type": "Point",
        "coordinates": [
          -71.2270645,
          -14.2611919
        ]
      },
      "id": "way/785952199"
    },
    {
      "type": "Feature",
      "properties": {
        "@id": "way/787546616",
        "building": "yes",
        "name": "La Capilla Lodge",
        "tourism": "hotel",
        "@geometry": "center"
      },
      "geometry": {
        "type": "Point",
        "coordinates": [
          -72.1377533,
          -13.2914526
        ]
      },
      "id": "way/787546616"
    },
    {
      "type": "Feature",
      "properties": {
        "@id": "way/788490094",
        "addr:city": "Sicuani",
        "addr:housenumber": "420",
        "addr:street": "Avenida Confederación",
        "building": "yes",
        "name": "Wilkamayu Hotel",
        "tourism": "hotel",
        "@geometry": "center"
      },
      "geometry": {
        "type": "Point",
        "coordinates": [
          -71.2270522,
          -14.2612958
        ]
      },
      "id": "way/788490094"
    },
    {
      "type": "Feature",
      "properties": {
        "@id": "way/793266354",
        "brand": "Explora",
        "building": "yes",
        "name": "Hotel Explora Valle Sagrado",
        "tourism": "hotel",
        "website": "https://www.explora.com/",
        "@geometry": "center"
      },
      "geometry": {
        "type": "Point",
        "coordinates": [
          -72.0479678,
          -13.3417651
        ]
      },
      "id": "way/793266354"
    },
    {
      "type": "Feature",
      "properties": {
        "@id": "way/795624875",
        "addr:city": "Machu Picchu Pueblo",
        "addr:housenumber": "1-3",
        "addr:street": "Avenida Hermanos Ayar",
        "brand": "Sumaq Hotel",
        "building": "yes",
        "building:levels": "4",
        "height": "11",
        "name": "Sumaq Hotel",
        "operator": "Sumaq Hotel",
        "phone": "+51 84 211059",
        "stars": "3",
        "tourism": "hotel",
        "website": "https://www.machupicchuhotels-sumaq.com/",
        "@geometry": "center"
      },
      "geometry": {
        "type": "Point",
        "coordinates": [
          -72.5284978,
          -13.1542918
        ]
      },
      "id": "way/795624875"
    },
    {
      "type": "Feature",
      "properties": {
        "@id": "way/801024079",
        "building": "yes",
        "name": "Hospedaje el Pisonay",
        "tourism": "hotel",
        "@geometry": "center"
      },
      "geometry": {
        "type": "Point",
        "coordinates": [
          -72.0647436,
          -13.3380978
        ]
      },
      "id": "way/801024079"
    },
    {
      "type": "Feature",
      "properties": {
        "@id": "way/807155848",
        "addr:city": "Upina",
        "addr:neighbourhood": "Fundo Upina",
        "addr:postcode": "Cusco",
        "addr:state": "Combapata",
        "building": "farm",
        "internet_access": "yes",
        "internet_access:fee": "customers",
        "name": "Casa Chillitupa",
        "rooms": "20",
        "tourism": "hotel",
        "@geometry": "center"
      },
      "geometry": {
        "type": "Point",
        "coordinates": [
          -71.3788178,
          -14.087437
        ]
      },
      "id": "way/807155848"
    },
    {
      "type": "Feature",
      "properties": {
        "@id": "way/807155849",
        "addr:city": "Upina",
        "addr:neighbourhood": "Fundo Upina",
        "addr:postcode": "Cusco",
        "addr:state": "Combapata",
        "building": "farm",
        "internet_access": "yes",
        "internet_access:fee": "customers",
        "name": "Casa Chillitupa",
        "rooms": "20",
        "tourism": "hotel",
        "@geometry": "center"
      },
      "geometry": {
        "type": "Point",
        "coordinates": [
          -71.3789561,
          -14.0874118
        ]
      },
      "id": "way/807155849"
    },
    {
      "type": "Feature",
      "properties": {
        "@id": "way/807155850",
        "addr:city": "Upina",
        "addr:neighbourhood": "Fundo Upina",
        "addr:postcode": "Cusco",
        "addr:state": "Combapata",
        "building": "farm",
        "internet_access": "yes",
        "internet_access:fee": "customers",
        "name": "Casa Chillitupa",
        "rooms": "20",
        "tourism": "hotel",
        "@geometry": "center"
      },
      "geometry": {
        "type": "Point",
        "coordinates": [
          -71.3789581,
          -14.0874852
        ]
      },
      "id": "way/807155850"
    },
    {
      "type": "Feature",
      "properties": {
        "@id": "way/810670025",
        "building": "yes",
        "name": "Hotel San Agustín Urubamba",
        "tourism": "hotel",
        "@geometry": "center"
      },
      "geometry": {
        "type": "Point",
        "coordinates": [
          -72.1056765,
          -13.3112677
        ]
      },
      "id": "way/810670025"
    },
    {
      "type": "Feature",
      "properties": {
        "@id": "way/814593947",
        "building": "yes",
        "name": "Hospedaje Paititi",
        "tourism": "hotel",
        "@geometry": "center"
      },
      "geometry": {
        "type": "Point",
        "coordinates": [
          -71.4043118,
          -12.9112994
        ]
      },
      "id": "way/814593947"
    },
    {
      "type": "Feature",
      "properties": {
        "@id": "way/814596512",
        "building": "yes",
        "tourism": "hotel",
        "@geometry": "center"
      },
      "geometry": {
        "type": "Point",
        "coordinates": [
          -71.4047867,
          -12.9127657
        ]
      },
      "id": "way/814596512"
    },
    {
      "type": "Feature",
      "properties": {
        "@id": "way/815424480",
        "building": "yes",
        "internet_access": "wlan",
        "internet_access:fee": "customers",
        "name": "Gallito de las Rocas",
        "tourism": "hotel",
        "@geometry": "center"
      },
      "geometry": {
        "type": "Point",
        "coordinates": [
          -71.404223,
          -12.9115982
        ]
      },
      "id": "way/815424480"
    },
    {
      "type": "Feature",
      "properties": {
        "@id": "node/836517800",
        "name": "Arqueologo Exclusive Selection",
        "tourism": "hotel"
      },
      "geometry": {
        "type": "Point",
        "coordinates": [
          -71.9776978,
          -13.5137518
        ]
      },
      "id": "node/836517800"
    },
    {
      "type": "Feature",
      "properties": {
        "@id": "node/874430124",
        "addr:city": "Cusco",
        "addr:district": "Cusco",
        "addr:housenumber": "660",
        "addr:street": "Calle Tandapata",
        "name": "Amazon Hostal",
        "tourism": "hotel"
      },
      "geometry": {
        "type": "Point",
        "coordinates": [
          -71.9748301,
          -13.5138952
        ]
      },
      "id": "node/874430124"
    },
    {
      "type": "Feature",
      "properties": {
        "@id": "node/874430134",
        "name": "Hosteria Hrumicchaca",
        "tourism": "hotel"
      },
      "geometry": {
        "type": "Point",
        "coordinates": [
          -72.1395219,
          -13.2962146
        ]
      },
      "id": "node/874430134"
    },
    {
      "type": "Feature",
      "properties": {
        "@id": "node/929727313",
        "name": "Apu Lodge",
        "tourism": "hotel"
      },
      "geometry": {
        "type": "Point",
        "coordinates": [
          -72.261799,
          -13.2560102
        ]
      },
      "id": "node/929727313"
    },
    {
      "type": "Feature",
      "properties": {
        "@id": "node/942768821",
        "name": "La Case Escondida",
        "tourism": "hotel"
      },
      "geometry": {
        "type": "Point",
        "coordinates": [
          -71.9788796,
          -13.5122186
        ]
      },
      "id": "node/942768821"
    },
    {
      "type": "Feature",
      "properties": {
        "@id": "way/965294280",
        "addr:city": "Huayllabamba",
        "addr:postcode": "08471",
        "addr:state": "Urubamba",
        "addr:street": "Antigua Hacienda Yaravilca",
        "air_conditioning": "yes",
        "bar": "yes",
        "brand": "Aranwa",
        "internet_access": "wlan",
        "internet_access:fee": "customers",
        "name": "Aranwa Sacred Valley Hotel & Wellness",
        "phone": "+51 1 2070440",
        "stars": "5",
        "tourism": "hotel",
        "website": "https://aranwahotels.com/en/hotels/aranwa-sacred-valley-hotel-wellness/",
        "@geometry": "center"
      },
      "geometry": {
        "type": "Point",
        "coordinates": [
          -72.0512005,
          -13.3304246
        ]
      },
      "id": "way/965294280"
    },
    {
      "type": "Feature",
      "properties": {
        "@id": "node/995445961",
        "name": "Posada del Inca",
        "tourism": "hotel"
      },
      "geometry": {
        "type": "Point",
        "coordinates": [
          -71.979517,
          -13.5173877
        ]
      },
      "id": "node/995445961"
    },
    {
      "type": "Feature",
      "properties": {
        "@id": "node/995446009",
        "fax": "+51 84 222401",
        "name": "Garcilaso",
        "phone": "+51 84 227951",
        "tourism": "hotel",
        "website": "http://www.hotelesgarcilaso.com"
      },
      "geometry": {
        "type": "Point",
        "coordinates": [
          -71.9809991,
          -13.5180778
        ]
      },
      "id": "node/995446009"
    },
    {
      "type": "Feature",
      "properties": {
        "@id": "way/1006866964",
        "building": "apartments",
        "building:levels": "7",
        "name": "Hotel Polo Santa Monica",
        "tourism": "hotel",
        "@geometry": "center"
      },
      "geometry": {
        "type": "Point",
        "coordinates": [
          -71.9481844,
          -13.5310996
        ]
      },
      "id": "way/1006866964"
    },
    {
      "type": "Feature",
      "properties": {
        "@id": "node/1011871972",
        "name": "Marcelino's Hotel",
        "tourism": "hotel"
      },
      "geometry": {
        "type": "Point",
        "coordinates": [
          -71.9329873,
          -13.5298974
        ]
      },
      "id": "node/1011871972"
    },
    {
      "type": "Feature",
      "properties": {
        "@id": "way/1024691202",
        "name": "Lizzy Wasi Boutique Hotel",
        "tourism": "hotel",
        "@geometry": "center"
      },
      "geometry": {
        "type": "Point",
        "coordinates": [
          -72.1268706,
          -13.3022
        ]
      },
      "id": "way/1024691202"
    },
    {
      "type": "Feature",
      "properties": {
        "@id": "way/1073695190",
        "internet_access": "yes",
        "name": "Sacred Valley Lodge",
        "tourism": "hotel",
        "@geometry": "center"
      },
      "geometry": {
        "type": "Point",
        "coordinates": [
          -71.9164569,
          -13.3637218
        ]
      },
      "id": "way/1073695190"
    },
    {
      "type": "Feature",
      "properties": {
        "@id": "way/1096177553",
        "addr:housenumber": "104",
        "addr:street": "Avenida San Martin",
        "email": "reservas@hotelcasonayucay.com",
        "name": "La Casona de Yucay",
        "phone": "+51 84 201116",
        "tourism": "hotel",
        "website": "http://hotelcasonayucay.com/",
        "@geometry": "center"
      },
      "geometry": {
        "type": "Point",
        "coordinates": [
          -72.0900195,
          -13.3183321
        ]
      },
      "id": "way/1096177553"
    },
    {
      "type": "Feature",
      "properties": {
        "@id": "way/1150086625",
        "addr:district": "Sangarará",
        "addr:postcode": "08005",
        "addr:state": "Cusco",
        "name": "Yanampampa Lodge",
        "opening_hours": "24/7",
        "operator:type": "private",
        "tourism": "hotel",
        "@geometry": "center"
      },
      "geometry": {
        "type": "Point",
        "coordinates": [
          -71.5131446,
          -14.0049202
        ]
      },
      "id": "way/1150086625"
    },
    {
      "type": "Feature",
      "properties": {
        "@id": "node/1347759171",
        "name": "Hospedaja Sixpak Manco",
        "tourism": "hotel"
      },
      "geometry": {
        "type": "Point",
        "coordinates": [
          -72.9369652,
          -13.1146129
        ]
      },
      "id": "node/1347759171"
    },
    {
      "type": "Feature",
      "properties": {
        "@id": "node/1428454141",
        "name": "Casa de los Cerezos",
        "tourism": "hotel"
      },
      "geometry": {
        "type": "Point",
        "coordinates": [
          -71.9743342,
          -13.5147142
        ]
      },
      "id": "node/1428454141"
    },
    {
      "type": "Feature",
      "properties": {
        "@id": "node/1428454142",
        "name": "Hospedaje Inka",
        "tourism": "hotel"
      },
      "geometry": {
        "type": "Point",
        "coordinates": [
          -71.9728127,
          -13.5143698
        ]
      },
      "id": "node/1428454142"
    },
    {
      "type": "Feature",
      "properties": {
        "@id": "node/1428454143",
        "name": "Hotel del Artesano",
        "tourism": "hotel"
      },
      "geometry": {
        "type": "Point",
        "coordinates": [
          -71.9734348,
          -13.5144855
        ]
      },
      "id": "node/1428454143"
    },
    {
      "type": "Feature",
      "properties": {
        "@id": "node/1519922746",
        "email": "info@pisacinn.com",
        "fax": "+51- 84 - 203062",
        "internet_access": "terminal",
        "internet_access:fee": "no",
        "name": "Pisac Inn",
        "phone": "+51- 84 - 203062",
        "tourism": "hotel",
        "website": "https://pisacinn.com/"
      },
      "geometry": {
        "type": "Point",
        "coordinates": [
          -71.8507451,
          -13.4212163
        ]
      },
      "id": "node/1519922746"
    },
    {
      "type": "Feature",
      "properties": {
        "@id": "node/1519938548",
        "email": "reservas@casaelenacusco.com",
        "fax": "+51 84 241202",
        "internet_access": "yes",
        "name": "Hospedaje Casa Elena",
        "phone": "+51 84 241202",
        "tourism": "hotel",
        "website": "http://www.casaelenacusco.com",
        "wheelchair": "no"
      },
      "geometry": {
        "type": "Point",
        "coordinates": [
          -71.9759416,
          -13.5150931
        ]
      },
      "id": "node/1519938548"
    },
    {
      "type": "Feature",
      "properties": {
        "@id": "node/1519945061",
        "email": "reservas@munaytika.com",
        "name": "Muña Tika",
        "tourism": "hotel",
        "website": "https://www.munaytika.com/"
      },
      "geometry": {
        "type": "Point",
        "coordinates": [
          -72.2656567,
          -13.2594152
        ]
      },
      "id": "node/1519945061"
    },
    {
      "type": "Feature",
      "properties": {
        "@id": "node/1521447111",
        "addr:city": "Machupicchu Pueblo",
        "addr:housenumber": "104",
        "addr:street": "Calle Collaraymi",
        "brand": "Gringo Bill's",
        "email": "reservas@gringobills.com",
        "name": "Gringo Bill's Hotel",
        "phone": "+51 84 211046",
        "tourism": "hotel",
        "website": "http://www.gringobills.com"
      },
      "geometry": {
        "type": "Point",
        "coordinates": [
          -72.5257795,
          -13.1539994
        ]
      },
      "id": "node/1521447111"
    },
    {
      "type": "Feature",
      "properties": {
        "@id": "node/1639905998",
        "contact:twitter": "https://twitter.com/Hotel_RojasInn",
        "name": "Hostal Rojas",
        "tourism": "hotel",
        "website": "http://www.hotelrojascusco.com"
      },
      "geometry": {
        "type": "Point",
        "coordinates": [
          -71.9806092,
          -13.5149686
        ]
      },
      "id": "node/1639905998"
    },
    {
      "type": "Feature",
      "properties": {
        "@id": "node/1703367470",
        "internet_access": "yes",
        "internet_access:fee": "no",
        "name": "Hotel Qorikilla",
        "stars": "2",
        "tourism": "hotel"
      },
      "geometry": {
        "type": "Point",
        "coordinates": [
          -71.9843451,
          -13.5147766
        ]
      },
      "id": "node/1703367470"
    },
    {
      "type": "Feature",
      "properties": {
        "@id": "node/1764308012",
        "addr:city": "Cusco",
        "addr:housenumber": "342",
        "addr:postcode": "08000",
        "addr:street": "Santa Catalina Ancha",
        "internet_access": "wlan",
        "internet_access:fee": "no",
        "name": "Maytaq Wasin Boutique Hotel",
        "phone": "+5184224291",
        "stars": "3",
        "tourism": "hotel",
        "website": "http://maytaqhotel.com"
      },
      "geometry": {
        "type": "Point",
        "coordinates": [
          -71.9766659,
          -13.5172568
        ]
      },
      "id": "node/1764308012"
    },
    {
      "type": "Feature",
      "properties": {
        "@id": "node/1764335439",
        "internet_access": "wlan",
        "internet_access:fee": "no",
        "name": "Inkallpa",
        "phone": "+51984769168",
        "stars": "3",
        "tourism": "hotel",
        "website": "http://www.inkallpa.com/"
      },
      "geometry": {
        "type": "Point",
        "coordinates": [
          -72.1804723,
          -13.2804525
        ]
      },
      "id": "node/1764335439"
    },
    {
      "type": "Feature",
      "properties": {
        "@id": "node/1764335451",
        "name": "Pakaritampu",
        "tourism": "hotel",
        "website": "http://www.pakaritampu.com/"
      },
      "geometry": {
        "type": "Point",
        "coordinates": [
          -72.267884,
          -13.2623669
        ]
      },
      "id": "node/1764335451"
    },
    {
      "type": "Feature",
      "properties": {
        "@id": "node/1800153173",
        "name": "Hostal Pakarina",
        "tourism": "hotel"
      },
      "geometry": {
        "type": "Point",
        "coordinates": [
          -72.5235842,
          -13.1536354
        ]
      },
      "id": "node/1800153173"
    },
    {
      "type": "Feature",
      "properties": {
        "@id": "node/1879765872",
        "internet_access": "wlan",
        "internet_access:fee": "no",
        "name": "Las Chullpas Eco Lodge",
        "tourism": "hotel",
        "website": "http://www.chullpas.pe"
      },
      "geometry": {
        "type": "Point",
        "coordinates": [
          -72.1317954,
          -13.2868097
        ]
      },
      "id": "node/1879765872"
    },
    {
      "type": "Feature",
      "properties": {
        "@id": "node/1884064501",
        "name": "Colpa Lodge",
        "tourism": "hotel",
        "website": "https://www.mountainlodgesofperu.com/"
      },
      "geometry": {
        "type": "Point",
        "coordinates": [
          -72.6651628,
          -13.322062
        ]
      },
      "id": "node/1884064501"
    },
    {
      "type": "Feature",
      "properties": {
        "@id": "node/1913887104",
        "fax": "+51 84 242741",
        "internet_access": "wlan",
        "name": "Rumi Punku",
        "phone": "+51 84 221102",
        "tourism": "hotel",
        "website": "https://www.rumipunku.com"
      },
      "geometry": {
        "type": "Point",
        "coordinates": [
          -71.9770439,
          -13.5138939
        ]
      },
      "id": "node/1913887104"
    },
    {
      "type": "Feature",
      "properties": {
        "@id": "node/1913887107",
        "fixme": "name + info",
        "tourism": "hotel"
      },
      "geometry": {
        "type": "Point",
        "coordinates": [
          -71.9804141,
          -13.5142355
        ]
      },
      "id": "node/1913887107"
    },
    {
      "type": "Feature",
      "properties": {
        "@id": "node/1914105341",
        "addr:street": "Atoqsayk'uchi 594",
        "name": "Guest House Indigo",
        "tourism": "hotel"
      },
      "geometry": {
        "type": "Point",
        "coordinates": [
          -71.9762755,
          -13.513759
        ]
      },
      "id": "node/1914105341"
    },
    {
      "type": "Feature",
      "properties": {
        "@id": "node/1978532545",
        "email": "reservas@samanapaq.com",
        "internet_access": "wlan",
        "name": "Samanapaq",
        "phone": "+51084204042",
        "tourism": "hotel"
      },
      "geometry": {
        "type": "Point",
        "coordinates": [
          -72.2614493,
          -13.2590947
        ]
      },
      "id": "node/1978532545"
    },
    {
      "type": "Feature",
      "properties": {
        "@id": "node/1990578179",
        "name": "Hostal Lira",
        "tourism": "hotel"
      },
      "geometry": {
        "type": "Point",
        "coordinates": [
          -72.6957776,
          -12.8684385
        ]
      },
      "id": "node/1990578179"
    },
    {
      "type": "Feature",
      "properties": {
        "@id": "node/1990578181",
        "name": "Hostal Don Carlos",
        "tourism": "hotel"
      },
      "geometry": {
        "type": "Point",
        "coordinates": [
          -72.6940396,
          -12.8639755
        ]
      },
      "id": "node/1990578181"
    },
    {
      "type": "Feature",
      "properties": {
        "@id": "node/2202257437",
        "addr:city": "Machu Picchu Pueblo",
        "addr:housenumber": "135",
        "addr:street": "Avenido Imperio de los Incas",
        "email": "reservations@hostalpresidente.com",
        "internet_access": "yes",
        "internet_access:fee": "no",
        "name": "Presidente",
        "operator": "Sierra Andina",
        "smoking": "no",
        "source": "survey",
        "tourism": "hotel",
        "website": "http://hostalpresidente.com/",
        "wheelchair": "limited"
      },
      "geometry": {
        "type": "Point",
        "coordinates": [
          -72.5264204,
          -13.1543799
        ]
      },
      "id": "node/2202257437"
    },
    {
      "type": "Feature",
      "properties": {
        "@id": "node/2204524313",
        "addr:housenumber": "909",
        "addr:street": "Avenida Tullumayo",
        "email": "info@hotelwarari.com",
        "internet_access": "yes",
        "internet_access:fee": "no",
        "name": "Hotel Warari",
        "phone": "+5184261775",
        "smoking": "no",
        "tourism": "hotel",
        "website": "http://www.hotelwarari.com/",
        "wheelchair": "limited"
      },
      "geometry": {
        "type": "Point",
        "coordinates": [
          -71.9725738,
          -13.5236668
        ]
      },
      "id": "node/2204524313"
    },
    {
      "type": "Feature",
      "properties": {
        "@id": "node/2250362474",
        "name": "Waynapicchu Hotel",
        "tourism": "hotel"
      },
      "geometry": {
        "type": "Point",
        "coordinates": [
          -71.9724005,
          -13.5225896
        ]
      },
      "id": "node/2250362474"
    },
    {
      "type": "Feature",
      "properties": {
        "@id": "node/2263262061",
        "name": "Munay Wasi Inn",
        "tourism": "hotel"
      },
      "geometry": {
        "type": "Point",
        "coordinates": [
          -71.9741292,
          -13.518521
        ]
      },
      "id": "node/2263262061"
    },
    {
      "type": "Feature",
      "properties": {
        "@id": "node/2328007825",
        "addr:city": "Cusco",
        "addr:housenumber": "298",
        "addr:street": "Tandapata",
        "internet_access": "wlan",
        "name": "Hotel Casa de Campo",
        "phone": "+51 84 244404",
        "tourism": "hotel",
        "wheelchair": "no"
      },
      "geometry": {
        "type": "Point",
        "coordinates": [
          -71.9775844,
          -13.5119905
        ]
      },
      "id": "node/2328007825"
    },
    {
      "type": "Feature",
      "properties": {
        "@id": "node/2347249187",
        "name": "Casa de Campo",
        "tourism": "hotel"
      },
      "geometry": {
        "type": "Point",
        "coordinates": [
          -72.1299411,
          -13.2939918
        ]
      },
      "id": "node/2347249187"
    },
    {
      "type": "Feature",
      "properties": {
        "@id": "node/2365990805",
        "name": "Villa Mayor",
        "stars": "3",
        "tourism": "hotel"
      },
      "geometry": {
        "type": "Point",
        "coordinates": [
          -71.9798528,
          -13.5169469
        ]
      },
      "id": "node/2365990805"
    },
    {
      "type": "Feature",
      "properties": {
        "@id": "node/2397532409",
        "name": "Cusco Plaza I",
        "tourism": "hotel"
      },
      "geometry": {
        "type": "Point",
        "coordinates": [
          -71.9771166,
          -13.51561
        ]
      },
      "id": "node/2397532409"
    },
    {
      "type": "Feature",
      "properties": {
        "@id": "node/2574703586",
        "addr:city": "Quillabamba",
        "addr:housename": "Hostal Tropical",
        "addr:street": "Jr. Libertad Nr.: 559",
        "name": "Hostal Tropical",
        "phone": "+5184282653",
        "tourism": "hotel"
      },
      "geometry": {
        "type": "Point",
        "coordinates": [
          -72.6941258,
          -12.8641365
        ]
      },
      "id": "node/2574703586"
    },
    {
      "type": "Feature",
      "properties": {
        "@id": "node/2574836618",
        "addr:city": "Cusco",
        "addr:housename": "Hotel Panaka",
        "addr:street": "Belén Nr.347",
        "ele": "3300",
        "name": "Hatun Ayllu Panaka",
        "phone": "+5184248849",
        "tourism": "hotel",
        "website": "https://www.panakarealhotel.com"
      },
      "geometry": {
        "type": "Point",
        "coordinates": [
          -71.9790619,
          -13.5218268
        ]
      },
      "id": "node/2574836618"
    },
    {
      "type": "Feature",
      "properties": {
        "@id": "node/2612174832",
        "name": "Hostal Casa Grande",
        "tourism": "hotel"
      },
      "geometry": {
        "type": "Point",
        "coordinates": [
          -71.9768163,
          -13.5169476
        ]
      },
      "id": "node/2612174832"
    },
    {
      "type": "Feature",
      "properties": {
        "@id": "node/2735773931",
        "name": "Hostal Mama Simona",
        "tourism": "hotel"
      },
      "geometry": {
        "type": "Point",
        "coordinates": [
          -71.9841039,
          -13.5176326
        ]
      },
      "id": "node/2735773931"
    },
    {
      "type": "Feature",
      "properties": {
        "@id": "node/2777094958",
        "email": "adm.fray@apu.cbc.org.pe, counter@apu.cbc.org.pe",
        "name": "La Casa de Fray Bartolomé",
        "operator": "CBC",
        "phone": "+51 84 233472, +51 84 241319",
        "tourism": "hotel",
        "website": "http://www.hotelescbc-cusco.com/frayen/"
      },
      "geometry": {
        "type": "Point",
        "coordinates": [
          -71.9738306,
          -13.5189971
        ]
      },
      "id": "node/2777094958"
    },
    {
      "type": "Feature",
      "properties": {
        "@id": "node/2800380384",
        "name": "Royal Inka Pisac",
        "tourism": "hotel"
      },
      "geometry": {
        "type": "Point",
        "coordinates": [
          -71.8404683,
          -13.4211957
        ]
      },
      "id": "node/2800380384"
    },
    {
      "type": "Feature",
      "properties": {
        "@id": "node/2805145553",
        "addr:city": "Wanchaq",
        "addr:housenumber": "A-3",
        "addr:street": "Calle Hilario Mendivil",
        "contact:facebook": "https://www.facebook.com/KantuHospedaje.pe/",
        "name": "Kantu Hospedaje",
        "note": "Muy cerca al aeropuerto y a 10 minutos del centro del Cusco, ofrece a usted un lugar placentero, cómodo y bien equipado - Habitaciones con Baño Privado (Agua Caliente) - Televisión por Cable - Amplio Garaje Privado - Internet WiFi - SIEMPRE ABIERTO",
        "phone": "+51 84 243079;+51 974364442",
        "tourism": "hotel"
      },
      "geometry": {
        "type": "Point",
        "coordinates": [
          -71.9409359,
          -13.5401935
        ]
      },
      "id": "node/2805145553"
    },
    {
      "type": "Feature",
      "properties": {
        "@id": "node/2823847984",
        "addr:street": "Pasaje A. Quiñones",
        "name": "In Casita",
        "tourism": "hotel"
      },
      "geometry": {
        "type": "Point",
        "coordinates": [
          -71.9471671,
          -13.5281116
        ]
      },
      "id": "node/2823847984"
    },
    {
      "type": "Feature",
      "properties": {
        "@id": "node/2890237201",
        "internet_access": "wlan",
        "internet_access:fee": "no",
        "name": "Hotel Sol",
        "tourism": "hotel",
        "website": "http://www.hotelsolperu.com"
      },
      "geometry": {
        "type": "Point",
        "coordinates": [
          -72.2645339,
          -13.258099
        ]
      },
      "id": "node/2890237201"
    },
    {
      "type": "Feature",
      "properties": {
        "@id": "node/3224406837",
        "name": "hospedaje",
        "tourism": "hotel"
      },
      "geometry": {
        "type": "Point",
        "coordinates": [
          -71.9221065,
          -13.5326573
        ]
      },
      "id": "node/3224406837"
    },
    {
      "type": "Feature",
      "properties": {
        "@id": "node/3237441161",
        "addr:city": "Cusco",
        "addr:housenumber": "A-8",
        "addr:street": "Pasaje Santa Rosa",
        "name": "Quinua Villa Boutique",
        "smoking": "no",
        "tourism": "hotel",
        "website": "http://www.quinua.com.pe/"
      },
      "geometry": {
        "type": "Point",
        "coordinates": [
          -71.9762043,
          -13.5123596
        ]
      },
      "id": "node/3237441161"
    },
    {
      "type": "Feature",
      "properties": {
        "@id": "node/3266855075",
        "building": "yes",
        "name": "Hotel Chakana",
        "tourism": "hotel",
        "website": "http://www.chakanahostel.com"
      },
      "geometry": {
        "type": "Point",
        "coordinates": [
          -71.9720146,
          -13.5239822
        ]
      },
      "id": "node/3266855075"
    },
    {
      "type": "Feature",
      "properties": {
        "@id": "node/3385410006",
        "tourism": "hotel"
      },
      "geometry": {
        "type": "Point",
        "coordinates": [
          -72.1273282,
          -13.277088
        ]
      },
      "id": "node/3385410006"
    },
    {
      "type": "Feature",
      "properties": {
        "@id": "node/3402848229",
        "addr:city": "Cusco",
        "addr:street": "Avenida Huascar",
        "name": "Andrea's Inn",
        "tourism": "hotel"
      },
      "geometry": {
        "type": "Point",
        "coordinates": [
          -71.9716176,
          -13.5207592
        ]
      },
      "id": "node/3402848229"
    },
    {
      "type": "Feature",
      "properties": {
        "@id": "node/3437626554",
        "addr:city": "Ollantaytambo",
        "addr:street": "Avenida Ferrocarril",
        "name": "Wayras Hostal",
        "tourism": "hotel"
      },
      "geometry": {
        "type": "Point",
        "coordinates": [
          -72.2683762,
          -13.2622019
        ]
      },
      "id": "node/3437626554"
    },
    {
      "type": "Feature",
      "properties": {
        "@id": "node/3442167964",
        "addr:city": "Cusco",
        "addr:housenumber": "648",
        "addr:street": "Tandapata",
        "name": "Tandapata Boutique Hotel",
        "note": "Street numbers are not consecutive in this street.",
        "tourism": "hotel"
      },
      "geometry": {
        "type": "Point",
        "coordinates": [
          -71.9736361,
          -13.5152487
        ]
      },
      "id": "node/3442167964"
    },
    {
      "type": "Feature",
      "properties": {
        "@id": "node/3507851324",
        "addr:city": "Ollantaytambo",
        "addr:country": "PE",
        "addr:district": "Cusco",
        "addr:street": "Calle Turistas",
        "contact:email": "Reservashoteltierrainka@gmail.com",
        "contact:phone": "+51 9845 50927",
        "contact:website": "http://www.hoteltierrainka.com/?lang=en",
        "ele": "2800",
        "name": "HOTEL TIERRA INKA SACRED VALLEY",
        "smoking": "outside",
        "tourism": "hotel",
        "website": "http://www.hoteltierrainka.com"
      },
      "geometry": {
        "type": "Point",
        "coordinates": [
          -72.2691489,
          -13.2592652
        ]
      },
      "id": "node/3507851324"
    },
    {
      "type": "Feature",
      "properties": {
        "@id": "node/3525430667",
        "addr:housenumber": "145",
        "addr:street": "Avenida Baja",
        "name": "Villa Magica Aldea Yanapay",
        "tourism": "hotel",
        "website": "http://www.aldeayanapay.org"
      },
      "geometry": {
        "type": "Point",
        "coordinates": [
          -71.9847878,
          -13.5203229
        ]
      },
      "id": "node/3525430667"
    },
    {
      "type": "Feature",
      "properties": {
        "@id": "node/3567167839",
        "name": "La Cabaña",
        "tourism": "hotel"
      },
      "geometry": {
        "type": "Point",
        "coordinates": [
          -72.5234696,
          -13.1535417
        ]
      },
      "id": "node/3567167839"
    },
    {
      "type": "Feature",
      "properties": {
        "@id": "node/3573317096",
        "name": "Casa San Blas",
        "tourism": "hotel",
        "website": "https://www.casasanblas.com/"
      },
      "geometry": {
        "type": "Point",
        "coordinates": [
          -71.9749918,
          -13.5155287
        ]
      },
      "id": "node/3573317096"
    },
    {
      "type": "Feature",
      "properties": {
        "@id": "node/3575175917",
        "addr:city": "Cusco",
        "addr:housenumber": "306",
        "addr:street": "7 Quartones",
        "name": "El Mercado",
        "tourism": "hotel"
      },
      "geometry": {
        "type": "Point",
        "coordinates": [
          -71.9824714,
          -13.5162978
        ]
      },
      "id": "node/3575175917"
    },
    {
      "type": "Feature",
      "properties": {
        "@id": "node/3672138053",
        "name": "Hotel Tornado",
        "tourism": "hotel"
      },
      "geometry": {
        "type": "Point",
        "coordinates": [
          -72.1191978,
          -13.307058
        ]
      },
      "id": "node/3672138053"
    },
    {
      "type": "Feature",
      "properties": {
        "@id": "node/3730567695",
        "tourism": "hotel"
      },
      "geometry": {
        "type": "Point",
        "coordinates": [
          -73.5129654,
          -13.0015296
        ]
      },
      "id": "node/3730567695"
    },
    {
      "type": "Feature",
      "properties": {
        "@id": "node/3781833249",
        "addr:city": "Machu Picchu Pueblo",
        "addr:country": "PE",
        "addr:street": "Avenido Imperio de los Incas",
        "internet_access": "wlan",
        "name": "Casa Andina Standard Machu Picchu",
        "phone": "+51-84-244598",
        "tourism": "hotel"
      },
      "geometry": {
        "type": "Point",
        "coordinates": [
          -72.5242775,
          -13.1561216
        ]
      },
      "id": "node/3781833249"
    },
    {
      "type": "Feature",
      "properties": {
        "@id": "node/3822152849",
        "addr:city": "Cusco",
        "addr:housenumber": "270",
        "addr:postcode": "084",
        "addr:street": "San Andrés",
        "internet_access": "wlan",
        "name": "El Andariego",
        "phone": "+51 84 225593",
        "smoking": "outside",
        "tourism": "hotel",
        "website": "https://andariegocusco.com"
      },
      "geometry": {
        "type": "Point",
        "coordinates": [
          -71.9786067,
          -13.5199039
        ]
      },
      "id": "node/3822152849"
    },
    {
      "type": "Feature",
      "properties": {
        "@id": "node/3892812854",
        "name": "Cock-of-the-rock Lodge",
        "tourism": "hotel"
      },
      "geometry": {
        "type": "Point",
        "coordinates": [
          -71.5459154,
          -13.0561635
        ]
      },
      "id": "node/3892812854"
    },
    {
      "type": "Feature",
      "properties": {
        "@id": "node/3894254309",
        "addr:city": "Machu Picchu Pueblo",
        "addr:housenumber": "604",
        "addr:street": "Avenida Pachacutec",
        "beds": "18",
        "email": "tayta_hostal@hotmail.com",
        "internet_access": "yes",
        "internet_access:fee": "no",
        "name": "The Tayta Machupicchu",
        "opening_hours": "24/7",
        "payment:cash": "yes",
        "payment:credit_cards": "yes",
        "payment:debit_cards": "yes",
        "phone": "+51 84 211330",
        "rooms": "9",
        "stars": "2",
        "tourism": "hotel",
        "wheelchair": "no"
      },
      "geometry": {
        "type": "Point",
        "coordinates": [
          -72.5237038,
          -13.154153
        ]
      },
      "id": "node/3894254309"
    },
    {
      "type": "Feature",
      "properties": {
        "@id": "node/3894470661",
        "addr:city": "Machu Picchu Pueblo",
        "addr:housenumber": "206",
        "addr:street": "Calle Wiracocha",
        "beds": "60",
        "email": "reservas@wiracochainn.com",
        "internet_access": "yes",
        "internet_access:fee": "no",
        "internet_access:type": "wlan",
        "name": "Wiracocha Inn",
        "opening_hours": "24/7",
        "payment:cash": "yes",
        "payment:credit_cards": "yes",
        "payment:debit_cards": "no",
        "phone": "+51 84 211088",
        "rooms": "38",
        "stars": "2",
        "tourism": "hotel",
        "website": "http://www.wiracochainn.com",
        "wheelchair": "no"
      },
      "geometry": {
        "type": "Point",
        "coordinates": [
          -72.5233482,
          -13.1543107
        ]
      },
      "id": "node/3894470661"
    },
    {
      "type": "Feature",
      "properties": {
        "@id": "node/3952820955",
        "addr:city": "Cusco",
        "addr:housenumber": "259",
        "addr:street": "San Agustín",
        "brand": "Palacio del Inka",
        "name": "Palacio del Inka",
        "operator": "Marriott",
        "phone": "+51 84 231961",
        "smoking": "outside",
        "stars": "5",
        "tourism": "hotel",
        "website": "https://www.marriott.com/hotels/travel/cuzlc-palacio-del-inka-a-luxury-collection-hotel-cusco/",
        "wheelchair": "limited"
      },
      "geometry": {
        "type": "Point",
        "coordinates": [
          -71.9749668,
          -13.5196263
        ]
      },
      "id": "node/3952820955"
    },
    {
      "type": "Feature",
      "properties": {
        "@id": "node/3959963727",
        "addr:housenumber": "354",
        "addr:street": "Tandapata",
        "name": "Encantada Boutique",
        "phone": "+51 84 242206",
        "tourism": "hotel",
        "website": "http://www.cuscohotel-encantada.com/"
      },
      "geometry": {
        "type": "Point",
        "coordinates": [
          -71.9766147,
          -13.5122707
        ]
      },
      "id": "node/3959963727"
    },
    {
      "type": "Feature",
      "properties": {
        "@id": "node/4040952123",
        "name": "Manu Paradise Lodge",
        "tourism": "hotel"
      },
      "geometry": {
        "type": "Point",
        "coordinates": [
          -71.5441116,
          -13.055685
        ]
      },
      "id": "node/4040952123"
    },
    {
      "type": "Feature",
      "properties": {
        "@id": "node/4041007593",
        "addr:city": "Cusco",
        "addr:housenumber": "565",
        "addr:postcode": "051",
        "addr:street": "Alabado",
        "description": "Calle peatonal con graderías por ambos lados",
        "name": "Puerta Blanca Guest House",
        "operator": "Natural PeruTours",
        "smoking": "isolated",
        "tourism": "hotel"
      },
      "geometry": {
        "type": "Point",
        "coordinates": [
          -71.9743375,
          -13.5162956
        ]
      },
      "id": "node/4041007593"
    },
    {
      "type": "Feature",
      "properties": {
        "@id": "node/4106660489",
        "addr:city": "Cusco",
        "addr:housenumber": "210",
        "addr:street": "Wayna Capac",
        "alt_name": "Unumizu Hotel Cusco",
        "email": "reservas@unumizu.com",
        "internet_access": "wlan",
        "name": "Unumizu Cusco Hotel",
        "opening_hours": "24/7",
        "phone": "+51 84 223100",
        "tourism": "hotel",
        "website": "http://www.unumizu.com"
      },
      "geometry": {
        "type": "Point",
        "coordinates": [
          -71.9699041,
          -13.5230739
        ]
      },
      "id": "node/4106660489"
    },
    {
      "type": "Feature",
      "properties": {
        "@id": "node/4108127990",
        "addr:housenumber": "340—342",
        "addr:street": "Plateros",
        "email": "reservas@hotelhatunwasi.com",
        "internet_access": "wlan",
        "name": "Hatun Wasi",
        "opening_hours": "24/7",
        "phone": "+51 84 253585",
        "tourism": "hotel",
        "website": "http://www.hotelhatunwasi.com"
      },
      "geometry": {
        "type": "Point",
        "coordinates": [
          -71.98014,
          -13.5159216
        ]
      },
      "id": "node/4108127990"
    },
    {
      "type": "Feature",
      "properties": {
        "@id": "node/4109808595",
        "name": "Arco Iris",
        "tourism": "hotel"
      },
      "geometry": {
        "type": "Point",
        "coordinates": [
          -72.133044,
          -13.2870541
        ]
      },
      "id": "node/4109808595"
    },
    {
      "type": "Feature",
      "properties": {
        "@id": "node/4116938589",
        "addr:housenumber": "340",
        "addr:street": "Plateros",
        "email": "hotelhatunwasi1@hotmail.com",
        "internet_access": "wlan",
        "name": "Hotel Hatun Wasi",
        "opening_hours": "24/7",
        "phone": "+51 84 253585",
        "tourism": "hotel",
        "website": "http://www.hotelhatunwasi.com"
      },
      "geometry": {
        "type": "Point",
        "coordinates": [
          -71.9800258,
          -13.5160632
        ]
      },
      "id": "node/4116938589"
    },
    {
      "type": "Feature",
      "properties": {
        "@id": "node/4120063250",
        "addr:city": "Machu Picchu Pueblo",
        "addr:housenumber": "500",
        "addr:postcode": "08680",
        "addr:street": "Avenida Imperio de los Incas",
        "description": "Hostal Miskipacha Machupicchu",
        "name": "Hostal Miskipacha Machupicchu",
        "operator": "Hostal Miskipacha Machupicchu",
        "smoking": "outside",
        "tourism": "hotel"
      },
      "geometry": {
        "type": "Point",
        "coordinates": [
          -72.5267548,
          -13.1541763
        ]
      },
      "id": "node/4120063250"
    },
    {
      "type": "Feature",
      "properties": {
        "@id": "node/4157971289",
        "addr:housenumber": "1000",
        "addr:street": "Kiskapata",
        "internet_access": "wlan",
        "name": "Saya Wasi",
        "opening_hours": "24/7",
        "phone": "+51992974806",
        "tourism": "hotel",
        "website": "http://www.saya-wasi.com"
      },
      "geometry": {
        "type": "Point",
        "coordinates": [
          -71.974465,
          -13.5134465
        ]
      },
      "id": "node/4157971289"
    },
    {
      "type": "Feature",
      "properties": {
        "@id": "node/4165323289",
        "name": "Koyllur Inn",
        "tourism": "hotel"
      },
      "geometry": {
        "type": "Point",
        "coordinates": [
          -71.9726371,
          -13.5163653
        ]
      },
      "id": "node/4165323289"
    },
    {
      "type": "Feature",
      "properties": {
        "@id": "node/4181514419",
        "name": "Hotel Union Real",
        "tourism": "hotel"
      },
      "geometry": {
        "type": "Point",
        "coordinates": [
          -71.9240479,
          -13.5328642
        ]
      },
      "id": "node/4181514419"
    },
    {
      "type": "Feature",
      "properties": {
        "@id": "node/4182188581",
        "name": "Dona Rita La Casona",
        "tourism": "hotel"
      },
      "geometry": {
        "type": "Point",
        "coordinates": [
          -70.7535646,
          -13.2277013
        ]
      },
      "id": "node/4182188581"
    },
    {
      "type": "Feature",
      "properties": {
        "@id": "node/4196399290",
        "addr:housenumber": "998",
        "addr:street": "Regional",
        "email": "cuscopardohotel@hotmail.com",
        "internet_access": "wlan",
        "name": "Cusco Pardo Hotel",
        "phone": "+51 84 242823",
        "tourism": "hotel",
        "website": "http://www.cuscopardohotel.com/"
      },
      "geometry": {
        "type": "Point",
        "coordinates": [
          -71.9736179,
          -13.5253003
        ]
      },
      "id": "node/4196399290"
    },
    {
      "type": "Feature",
      "properties": {
        "@id": "node/4214483588",
        "addr:housenumber": "499",
        "addr:street": "Calle Suecia",
        "name": "Rumi Wasi",
        "tourism": "hotel"
      },
      "geometry": {
        "type": "Point",
        "coordinates": [
          -71.9800573,
          -13.5145125
        ]
      },
      "id": "node/4214483588"
    },
    {
      "type": "Feature",
      "properties": {
        "@id": "node/4217919689",
        "addr:housenumber": "351",
        "addr:street": "Tandapata",
        "internet_access": "wlan",
        "name": "Hospedaje Familiar SIHUAR",
        "phone": "+51 84 227435",
        "tourism": "hotel"
      },
      "geometry": {
        "type": "Point",
        "coordinates": [
          -71.9760755,
          -13.5127648
        ]
      },
      "id": "node/4217919689"
    },
    {
      "type": "Feature",
      "properties": {
        "@id": "node/4224725273",
        "addr:city": "Machu Picchu Pueblo",
        "addr:housenumber": "105",
        "addr:street": "Pasaje Selva Alegre",
        "name": "Puma's Inn",
        "phone": "+51 84 314030",
        "tourism": "hotel"
      },
      "geometry": {
        "type": "Point",
        "coordinates": [
          -72.5239619,
          -13.153689
        ]
      },
      "id": "node/4224725273"
    },
    {
      "type": "Feature",
      "properties": {
        "@id": "node/4254309891",
        "tourism": "hotel"
      },
      "geometry": {
        "type": "Point",
        "coordinates": [
          -70.7539374,
          -13.231169
        ]
      },
      "id": "node/4254309891"
    },
    {
      "type": "Feature",
      "properties": {
        "@id": "node/4254337789",
        "tourism": "hotel"
      },
      "geometry": {
        "type": "Point",
        "coordinates": [
          -70.7535505,
          -13.2310106
        ]
      },
      "id": "node/4254337789"
    },
    {
      "type": "Feature",
      "properties": {
        "@id": "node/4255540694",
        "addr:housenumber": "Lote G-6",
        "addr:street": "Calle Cusi Coyllon",
        "email": "info@miaantareshotel.com",
        "internet_access": "wlan",
        "name": "Mia Antares",
        "phone": "+51 993478246",
        "tourism": "hotel",
        "website": "http://www.miaantareshotel.com"
      },
      "geometry": {
        "type": "Point",
        "coordinates": [
          -72.26283,
          -13.259982
        ]
      },
      "id": "node/4255540694"
    },
    {
      "type": "Feature",
      "properties": {
        "@id": "node/4255552591",
        "addr:housenumber": "455",
        "addr:street": "Arco Iris",
        "email": "jamuyreservas@gmail.com",
        "internet_access": "wlan",
        "name": "Jamuy Guesthouse",
        "phone:PE": "1-800-000-0000",
        "tourism": "hotel",
        "website": "http://jamuyreservas.wix.com"
      },
      "geometry": {
        "type": "Point",
        "coordinates": [
          -71.9789502,
          -13.5140293
        ]
      },
      "id": "node/4255552591"
    },
    {
      "type": "Feature",
      "properties": {
        "@id": "node/4255596989",
        "addr:housenumber": "103",
        "addr:street": "Calle Mayta Capac",
        "email": "contactos@hostaljohn.com",
        "internet_access": "wlan",
        "name": "John Inn Hostal",
        "phone": "+51 84 211022",
        "tourism": "hotel",
        "website": "http://www.hostaljohn.com"
      },
      "geometry": {
        "type": "Point",
        "coordinates": [
          -72.524805,
          -13.154759
        ]
      },
      "id": "node/4255596989"
    },
    {
      "type": "Feature",
      "properties": {
        "@id": "node/4267993501",
        "addr:housenumber": "887",
        "addr:street": "De La Raza",
        "internet_access": "wlan",
        "name": "Mirador de Santa Ana",
        "phone": "+51 84 236393",
        "tourism": "hotel",
        "website": "http://miradordesantaanacusco.com/"
      },
      "geometry": {
        "type": "Point",
        "coordinates": [
          -71.9864318,
          -13.5137795
        ]
      },
      "id": "node/4267993501"
    },
    {
      "type": "Feature",
      "properties": {
        "@id": "node/4270937990",
        "name": "Hostal Arcano",
        "tourism": "hotel"
      },
      "geometry": {
        "type": "Point",
        "coordinates": [
          -71.976191,
          -13.513469
        ]
      },
      "id": "node/4270937990"
    },
    {
      "type": "Feature",
      "properties": {
        "@id": "node/4286923592",
        "internet_access": "wlan",
        "name": "inkarri",
        "tourism": "hotel"
      },
      "geometry": {
        "type": "Point",
        "coordinates": [
          -71.9732037,
          -13.5180607
        ]
      },
      "id": "node/4286923592"
    },
    {
      "type": "Feature",
      "properties": {
        "@id": "node/4297303891",
        "name": "Lorenzo Lodge",
        "tourism": "hotel"
      },
      "geometry": {
        "type": "Point",
        "coordinates": [
          -72.6282391,
          -13.0043074
        ]
      },
      "id": "node/4297303891"
    },
    {
      "type": "Feature",
      "properties": {
        "@id": "node/4313747198",
        "addr:housenumber": "D~1",
        "addr:postcode": "084",
        "addr:street": "Lucrepata",
        "email": "info@hostalatlantiscusco.com",
        "internet_access": "wlan",
        "name": "Atlantis",
        "opening_hours": "24/7",
        "phone": "+51 84 229360",
        "tourism": "hotel",
        "website": "http://www.hostalatlantiscusco.com"
      },
      "geometry": {
        "type": "Point",
        "coordinates": [
          -71.969964,
          -13.5152579
        ]
      },
      "id": "node/4313747198"
    },
    {
      "type": "Feature",
      "properties": {
        "@id": "node/4327527890",
        "addr:street": "Avenida el Sol",
        "name": "Santo Domingo",
        "tourism": "hotel"
      },
      "geometry": {
        "type": "Point",
        "coordinates": [
          -71.9761686,
          -13.5211893
        ]
      },
      "id": "node/4327527890"
    },
    {
      "type": "Feature",
      "properties": {
        "@id": "node/4348845458",
        "addr:housenumber": "260",
        "addr:street": "San Juan de Dios",
        "name": "Aranwa",
        "tourism": "hotel"
      },
      "geometry": {
        "type": "Point",
        "coordinates": [
          -71.9812488,
          -13.5170698
        ]
      },
      "id": "node/4348845458"
    },
    {
      "type": "Feature",
      "properties": {
        "@id": "node/4348845468",
        "addr:street": "Plateros",
        "internet_access": "wlan",
        "name": "Cusco Oblitas Casa Hotel",
        "tourism": "hotel"
      },
      "geometry": {
        "type": "Point",
        "coordinates": [
          -71.9803242,
          -13.5157614
        ]
      },
      "id": "node/4348845468"
    },
    {
      "type": "Feature",
      "properties": {
        "@id": "node/4348845474",
        "addr:postcode": "08002",
        "name": "Royal Inka",
        "tourism": "hotel"
      },
      "geometry": {
        "type": "Point",
        "coordinates": [
          -71.9807036,
          -13.5169663
        ]
      },
      "id": "node/4348845474"
    },
    {
      "type": "Feature",
      "properties": {
        "@id": "node/4350115784",
        "name": "Andean Wings",
        "tourism": "hotel"
      },
      "geometry": {
        "type": "Point",
        "coordinates": [
          -71.9817296,
          -13.515997
        ]
      },
      "id": "node/4350115784"
    },
    {
      "type": "Feature",
      "properties": {
        "@id": "node/4350116794",
        "name": "Carcilaso",
        "tourism": "hotel"
      },
      "geometry": {
        "type": "Point",
        "coordinates": [
          -71.9807165,
          -13.517757
        ]
      },
      "id": "node/4350116794"
    },
    {
      "type": "Feature",
      "properties": {
        "@id": "node/4350116797",
        "name": "Best Western Los Andes de América",
        "tourism": "hotel"
      },
      "geometry": {
        "type": "Point",
        "coordinates": [
          -71.9808102,
          -13.5176586
        ]
      },
      "id": "node/4350116797"
    },
    {
      "type": "Feature",
      "properties": {
        "@id": "node/4350322181",
        "name": "illa",
        "tourism": "hotel"
      },
      "geometry": {
        "type": "Point",
        "coordinates": [
          -71.9752916,
          -13.5144156
        ]
      },
      "id": "node/4350322181"
    },
    {
      "type": "Feature",
      "properties": {
        "@id": "node/4354152347",
        "addr:housenumber": "344",
        "addr:street": "Santa Teresa",
        "name": "Ramada",
        "tourism": "hotel"
      },
      "geometry": {
        "type": "Point",
        "coordinates": [
          -71.9808182,
          -13.5162545
        ]
      },
      "id": "node/4354152347"
    },
    {
      "type": "Feature",
      "properties": {
        "@id": "node/4354512755",
        "name": "Hotel Monasterio",
        "tourism": "hotel"
      },
      "geometry": {
        "type": "Point",
        "coordinates": [
          -71.9768775,
          -13.5154499
        ]
      },
      "id": "node/4354512755"
    },
    {
      "type": "Feature",
      "properties": {
        "@id": "node/4365037032",
        "addr:city": "Machu Picchu Pueblo",
        "addr:housenumber": "401",
        "addr:street": "Avenida Hermanos Ayar",
        "internet_access": "wlan",
        "internet_access:fee": "no",
        "name": "Terra Viva",
        "phone": "+51 84 211201",
        "tourism": "hotel",
        "website": "https://tierravivahoteles.com/es/tierra-viva-cusco-machu-picchu/"
      },
      "geometry": {
        "type": "Point",
        "coordinates": [
          -72.5268584,
          -13.1544111
        ]
      },
      "id": "node/4365037032"
    },
    {
      "type": "Feature",
      "properties": {
        "@id": "node/4365037037",
        "amenity": "restaurant",
        "internet_access:type": "wlan",
        "name": "Kcuychi",
        "tourism": "hotel"
      },
      "geometry": {
        "type": "Point",
        "coordinates": [
          -72.5258962,
          -13.1546129
        ]
      },
      "id": "node/4365037037"
    },
    {
      "type": "Feature",
      "properties": {
        "@id": "node/4367931003",
        "addr:city": "Cusco",
        "addr:housenumber": "239",
        "addr:street": "San Agustín",
        "contact:facebook": "https://www.facebook.com/NovotelCusco/",
        "name": "Novotel",
        "operator": "Novotel",
        "phone": "+51 84 581033",
        "tourism": "hotel"
      },
      "geometry": {
        "type": "Point",
        "coordinates": [
          -71.9757325,
          -13.5174293
        ]
      },
      "id": "node/4367931003"
    },
    {
      "type": "Feature",
      "properties": {
        "@id": "node/4377440290",
        "addr:housenumber": "291",
        "addr:street": "Kiskapata",
        "email": "thebluehousesanblas@gmail.com",
        "internet_access": "wlan",
        "name": "the blue house",
        "name:es": "the blue house",
        "opening_hours": "24/7",
        "phone": "+51 84 242407",
        "tourism": "hotel"
      },
      "geometry": {
        "type": "Point",
        "coordinates": [
          -71.9738798,
          -13.5138082
        ]
      },
      "id": "node/4377440290"
    },
    {
      "type": "Feature",
      "properties": {
        "@id": "node/4377443190",
        "addr:street": "pasaje San Antonio",
        "name": "Casita de san Blas",
        "name:es": "Casita de san Blas",
        "tourism": "hotel"
      },
      "geometry": {
        "type": "Point",
        "coordinates": [
          -71.9763434,
          -13.5118512
        ]
      },
      "id": "node/4377443190"
    },
    {
      "type": "Feature",
      "properties": {
        "@id": "node/4392846392",
        "name": "Hospedaje El Parque Lodge",
        "name:en": "Hospedaje El Parque Lodge",
        "tourism": "hotel"
      },
      "geometry": {
        "type": "Point",
        "coordinates": [
          -72.5255666,
          -13.1540386
        ]
      },
      "id": "node/4392846392"
    },
    {
      "type": "Feature",
      "properties": {
        "@id": "node/4395400553",
        "name": "Intitambo Hotel",
        "phone": "+5184204002",
        "tourism": "hotel"
      },
      "geometry": {
        "type": "Point",
        "coordinates": [
          -72.2631531,
          -13.2564497
        ]
      },
      "id": "node/4395400553"
    },
    {
      "type": "Feature",
      "properties": {
        "@id": "node/4409869891",
        "addr:street": "Jiron Pichari",
        "name": "shanda",
        "name:es": "shanda",
        "tourism": "hotel"
      },
      "geometry": {
        "type": "Point",
        "coordinates": [
          -73.8271322,
          -12.5175798
        ]
      },
      "id": "node/4409869891"
    },
    {
      "type": "Feature",
      "properties": {
        "@id": "node/4421305389",
        "addr:housenumber": "449",
        "addr:street": "Avenida San Martín",
        "internet_access": "wlan",
        "name": "amistad",
        "name:es": "amistad",
        "tourism": "hotel"
      },
      "geometry": {
        "type": "Point",
        "coordinates": [
          -72.6943239,
          -12.8664058
        ]
      },
      "id": "node/4421305389"
    },
    {
      "type": "Feature",
      "properties": {
        "@id": "node/4443152089",
        "addr:street": "Jirón La Convencion",
        "name": "kamisea",
        "name:es": "kamisea",
        "tourism": "hotel"
      },
      "geometry": {
        "type": "Point",
        "coordinates": [
          -72.6959624,
          -12.8669866
        ]
      },
      "id": "node/4443152089"
    },
    {
      "type": "Feature",
      "properties": {
        "@id": "node/4446411165",
        "addr:city": "Cusco",
        "addr:housenumber": "240",
        "addr:postcode": "84",
        "addr:street": "Q'era",
        "internet_access": "yes",
        "name": "Hotel Calicanto Inn's",
        "operator": "Luis Philco",
        "rooms": "16",
        "stars": "2",
        "tourism": "hotel"
      },
      "geometry": {
        "type": "Point",
        "coordinates": [
          -71.9794822,
          -13.5196034
        ]
      },
      "id": "node/4446411165"
    },
    {
      "type": "Feature",
      "properties": {
        "@id": "node/4453843764",
        "internet_access": "yes",
        "internet_access:fee": "no",
        "name": "Hostal Samani",
        "phone": "+51 084 232921",
        "tourism": "hotel",
        "website": "http://www.hostalsamani.com",
        "wheelchair": "no"
      },
      "geometry": {
        "type": "Point",
        "coordinates": [
          -71.9775023,
          -13.5136242
        ]
      },
      "id": "node/4453843764"
    },
    {
      "type": "Feature",
      "properties": {
        "@id": "node/4464469389",
        "contact:facebook": "https://www.facebook.com/Margaritas-HOUSE-Machu-Picchu-2568366766723051/",
        "name": "Margarita's House",
        "name:en": "Margarita's House",
        "tourism": "hotel"
      },
      "geometry": {
        "type": "Point",
        "coordinates": [
          -72.5230526,
          -13.1563662
        ]
      },
      "id": "node/4464469389"
    },
    {
      "type": "Feature",
      "properties": {
        "@id": "node/4488098481",
        "name": "Hotel Basconsuelos",
        "tourism": "hotel"
      },
      "geometry": {
        "type": "Point",
        "coordinates": [
          -72.0441372,
          -13.1043575
        ]
      },
      "id": "node/4488098481"
    },
    {
      "type": "Feature",
      "properties": {
        "@id": "node/4488098483",
        "name": "Hospedaje Rumi Wasi",
        "tourism": "hotel"
      },
      "geometry": {
        "type": "Point",
        "coordinates": [
          -72.0557793,
          -13.1106163
        ]
      },
      "id": "node/4488098483"
    },
    {
      "type": "Feature",
      "properties": {
        "@id": "node/4499101591",
        "addr:block": "I",
        "addr:neighbourhood": "Urbanización Santa Beatriz",
        "addr:plot": "3",
        "email": "mariaquilla@hotmail.com",
        "internet_access": "wlan",
        "name": "Hostal Quilla House",
        "name:es": "Hostal Quilla House",
        "opening_hours": "24/7",
        "phone": "+51 958198190",
        "tourism": "hotel"
      },
      "geometry": {
        "type": "Point",
        "coordinates": [
          -71.9515799,
          -13.5287618
        ]
      },
      "id": "node/4499101591"
    },
    {
      "type": "Feature",
      "properties": {
        "@id": "node/4522149991",
        "name": "Casa de chistama",
        "name:es": "Casa de chistama",
        "tourism": "hotel"
      },
      "geometry": {
        "type": "Point",
        "coordinates": [
          -71.9746408,
          -13.5317975
        ]
      },
      "id": "node/4522149991"
    },
    {
      "type": "Feature",
      "properties": {
        "@id": "node/4526637492",
        "name": "Hospedaje El Amigo",
        "name:es": "Hospedaje El Amigo",
        "tourism": "hotel"
      },
      "geometry": {
        "type": "Point",
        "coordinates": [
          -71.62526,
          -13.6887389
        ]
      },
      "id": "node/4526637492"
    },
    {
      "type": "Feature",
      "properties": {
        "@id": "node/4526751090",
        "internet_access": "wlan",
        "name": "Hostal El Imperador",
        "tourism": "hotel"
      },
      "geometry": {
        "type": "Point",
        "coordinates": [
          -71.2291944,
          -14.2720663
        ]
      },
      "id": "node/4526751090"
    },
    {
      "type": "Feature",
      "properties": {
        "@id": "node/4526751189",
        "name": "Hostal Don Zenon",
        "name:es": "Hostal Don Zenon",
        "tourism": "hotel"
      },
      "geometry": {
        "type": "Point",
        "coordinates": [
          -71.3436681,
          -14.1876329
        ]
      },
      "id": "node/4526751189"
    },
    {
      "type": "Feature",
      "properties": {
        "@id": "node/4527612189",
        "name": "hospedaje Choquequirao",
        "name:es": "hospedaje Choquequirao",
        "tourism": "hotel"
      },
      "geometry": {
        "type": "Point",
        "coordinates": [
          -72.59366,
          -13.1285903
        ]
      },
      "id": "node/4527612189"
    },
    {
      "type": "Feature",
      "properties": {
        "@id": "node/4538522097",
        "name": "San Agustin El Dorado",
        "tourism": "hotel"
      },
      "geometry": {
        "type": "Point",
        "coordinates": [
          -71.9770018,
          -13.5197599
        ]
      },
      "id": "node/4538522097"
    },
    {
      "type": "Feature",
      "properties": {
        "@id": "node/4561145789",
        "addr:housenumber": "I-6",
        "addr:street": "Saccsara",
        "internet_access": "wlan",
        "name": "Hospedaje Santa Teresa",
        "name:es": "Hospedaje Santa Teresa",
        "opening_hours": "24/7",
        "phone": "+51974746382",
        "tourism": "hotel"
      },
      "geometry": {
        "type": "Point",
        "coordinates": [
          -72.5934711,
          -13.1289241
        ]
      },
      "id": "node/4561145789"
    },
    {
      "type": "Feature",
      "properties": {
        "@id": "node/4563671292",
        "addr:city": "Ollantaytambo",
        "addr:neighbourhood": "Pilcohuasi",
        "addr:postcode": "08676",
        "addr:street": "Pachacutec",
        "brand": "Chaska Wasi",
        "email": "katycusco@yahoo.es",
        "internet_access": "wlan",
        "internet_access:fee": "customers",
        "name": "Chaska Wasi Hostel",
        "name:es": "Chaska Wasi Hostel",
        "phone": "+51 84 204045;+51 984753585",
        "rooms": "8",
        "tourism": "hotel"
      },
      "geometry": {
        "type": "Point",
        "coordinates": [
          -72.2633326,
          -13.2600314
        ]
      },
      "id": "node/4563671292"
    },
    {
      "type": "Feature",
      "properties": {
        "@id": "node/4696204389",
        "name": "Hostal Kero",
        "name:es": "Hostal Kero",
        "tourism": "hotel"
      },
      "geometry": {
        "type": "Point",
        "coordinates": [
          -71.9810301,
          -13.5207148
        ]
      },
      "id": "node/4696204389"
    },
    {
      "type": "Feature",
      "properties": {
        "@id": "node/4706786391",
        "addr:street": "Calle Mayta Capac",
        "internet_access": "wlan",
        "name": "Joe Inn",
        "tourism": "hotel"
      },
      "geometry": {
        "type": "Point",
        "coordinates": [
          -72.5249855,
          -13.1547507
        ]
      },
      "id": "node/4706786391"
    },
    {
      "type": "Feature",
      "properties": {
        "@id": "node/4770376023",
        "tourism": "hotel"
      },
      "geometry": {
        "type": "Point",
        "coordinates": [
          -71.5283979,
          -13.6344
        ]
      },
      "id": "node/4770376023"
    },
    {
      "type": "Feature",
      "properties": {
        "@id": "node/4786846822",
        "addr:housenumber": "502",
        "addr:street": "Av. Ponce de León 502",
        "name": "virgen del Carmen",
        "phone": "+51 959131028",
        "tourism": "hotel"
      },
      "geometry": {
        "type": "Point",
        "coordinates": [
          -71.8846458,
          -14.5099539
        ]
      },
      "id": "node/4786846822"
    },
    {
      "type": "Feature",
      "properties": {
        "@id": "node/4787380022",
        "addr:housenumber": "301",
        "addr:street": "Calle Collasuyo",
        "name": "hostal Angie's",
        "opening_hours": "24/7",
        "tourism": "hotel"
      },
      "geometry": {
        "type": "Point",
        "coordinates": [
          -72.5260044,
          -13.1540628
        ]
      },
      "id": "node/4787380022"
    },
    {
      "type": "Feature",
      "properties": {
        "@id": "node/4839276959",
        "name": "Hostal Zipline",
        "tourism": "hotel"
      },
      "geometry": {
        "type": "Point",
        "coordinates": [
          -72.5970142,
          -13.117525
        ]
      },
      "id": "node/4839276959"
    },
    {
      "type": "Feature",
      "properties": {
        "@id": "node/4844647121",
        "name": "Hotel Willcamayu",
        "name:en": "El indio",
        "name:es": "El indio",
        "name:fr": "El indio",
        "tourism": "hotel"
      },
      "geometry": {
        "type": "Point",
        "coordinates": [
          -71.8487685,
          -13.4220727
        ]
      },
      "id": "node/4844647121"
    },
    {
      "type": "Feature",
      "properties": {
        "@id": "node/4915659338",
        "addr:city": "Ollantaytambo",
        "addr:postcode": "08676",
        "addr:street": "Calle principal",
        "internet_access": "yes",
        "internet_access:fee": "no",
        "name": "Puma Wasi",
        "nohousenumber": "yes",
        "rooms": "13",
        "tourism": "hotel"
      },
      "geometry": {
        "type": "Point",
        "coordinates": [
          -72.2627925,
          -13.2586758
        ]
      },
      "id": "node/4915659338"
    },
    {
      "type": "Feature",
      "properties": {
        "@id": "node/4917257890",
        "name": "La Selva",
        "tourism": "hotel"
      },
      "geometry": {
        "type": "Point",
        "coordinates": [
          -73.824431,
          -12.5158509
        ]
      },
      "id": "node/4917257890"
    },
    {
      "type": "Feature",
      "properties": {
        "@id": "node/4937330726",
        "internet_access": "wlan",
        "name": "El Bosque Backpackers",
        "name:es": "El Bosque Backpackers",
        "tourism": "hotel"
      },
      "geometry": {
        "type": "Point",
        "coordinates": [
          -72.2685569,
          -13.2624286
        ]
      },
      "id": "node/4937330726"
    },
    {
      "type": "Feature",
      "properties": {
        "@id": "node/4955860411",
        "addr:city": "San Sebastián",
        "addr:housenumber": "B2",
        "addr:street": "Calle Wiracocha",
        "internet_access": "yes",
        "internet_access:fee": "no",
        "name": "DUKE Guest House",
        "rooms": "3",
        "tourism": "hotel"
      },
      "geometry": {
        "type": "Point",
        "coordinates": [
          -71.94068,
          -13.5221301
        ]
      },
      "id": "node/4955860411"
    },
    {
      "type": "Feature",
      "properties": {
        "@id": "node/4957730323",
        "addr:city": "Cusco",
        "addr:housenumber": "440",
        "addr:street": "Nueva Baja",
        "alt_name": "SUmaYaq",
        "name": "Sumayaq Hostel",
        "tourism": "hotel"
      },
      "geometry": {
        "type": "Point",
        "coordinates": [
          -71.9829396,
          -13.5176659
        ]
      },
      "id": "node/4957730323"
    },
    {
      "type": "Feature",
      "properties": {
        "@id": "node/4957730324",
        "name": "Ollantaytambo Hostel",
        "tourism": "hotel"
      },
      "geometry": {
        "type": "Point",
        "coordinates": [
          -72.5254622,
          -13.1540358
        ]
      },
      "id": "node/4957730324"
    },
    {
      "type": "Feature",
      "properties": {
        "@id": "node/4968714022",
        "name": "Sun Palace Inn",
        "tourism": "hotel"
      },
      "geometry": {
        "type": "Point",
        "coordinates": [
          -72.5253304,
          -13.1553431
        ]
      },
      "id": "node/4968714022"
    },
    {
      "type": "Feature",
      "properties": {
        "@id": "node/4978398621",
        "internet_access": "wlan",
        "name:en": "Rupa Wasi",
        "tourism": "hotel"
      },
      "geometry": {
        "type": "Point",
        "coordinates": [
          -72.5259986,
          -13.1536584
        ]
      },
      "id": "node/4978398621"
    },
    {
      "type": "Feature",
      "properties": {
        "@id": "node/4987259522",
        "name": "Hotel El Palacio",
        "name:es": "Hotel El Palacio",
        "tourism": "hotel"
      },
      "geometry": {
        "type": "Point",
        "coordinates": [
          -72.4449432,
          -13.479525
        ]
      },
      "id": "node/4987259522"
    },
    {
      "type": "Feature",
      "properties": {
        "@id": "node/4990834726",
        "name": "Tupac Yupanqui Palace",
        "name:es": "Tupac Yupanqui Palace",
        "tourism": "hotel"
      },
      "geometry": {
        "type": "Point",
        "coordinates": [
          -71.9760344,
          -13.5173414
        ]
      },
      "id": "node/4990834726"
    },
    {
      "type": "Feature",
      "properties": {
        "@id": "node/4990835626",
        "addr:housenumber": "275",
        "addr:street": "San Agustín",
        "amenity": "restaurant",
        "cuisine": "french",
        "internet_access": "wlan",
        "name": "La Lune one suite hotel",
        "name:en": "Le Soleil",
        "name:es": "La Lune one suite hotel",
        "opening_hours": "Mo-Su 12:30-15:00,18:00-22:30",
        "phone": "+51 84 240543",
        "tourism": "hotel",
        "website": "http://www.restaurantelesoleilcusco.com"
      },
      "geometry": {
        "type": "Point",
        "coordinates": [
          -71.9756514,
          -13.5179716
        ]
      },
      "id": "node/4990835626"
    },
    {
      "type": "Feature",
      "properties": {
        "@id": "node/4991459327",
        "name": "Hotel Golden Peru",
        "name:es": "Hotel Golden Peru",
        "tourism": "hotel"
      },
      "geometry": {
        "type": "Point",
        "coordinates": [
          -71.970999,
          -13.5203257
        ]
      },
      "id": "node/4991459327"
    },
    {
      "type": "Feature",
      "properties": {
        "@id": "node/4993538022",
        "name": "Andean Comfort Inn",
        "name:es": "Andean Comfort Inn",
        "tourism": "hotel"
      },
      "geometry": {
        "type": "Point",
        "coordinates": [
          -71.9747208,
          -13.5169978
        ]
      },
      "id": "node/4993538022"
    },
    {
      "type": "Feature",
      "properties": {
        "@id": "node/4993540324",
        "addr:city": "Cusco",
        "addr:housenumber": "390",
        "addr:street": "Maruri",
        "contact:twitter": "https://twitter.com/HotelSanAgustin",
        "email": "info@hsaperu.com",
        "internet_access": "wlan",
        "internet_access:fee": "no",
        "name": "San Agustin Internacional",
        "name:es": "San Agustin Internacional",
        "operator": "San Agustin Hoteles",
        "phone": "+51 84 222322",
        "stars": "3S",
        "tourism": "hotel",
        "website": "http://www.hotelessanagustin.com.pe/es/hoteles/internacional-cusco/"
      },
      "geometry": {
        "type": "Point",
        "coordinates": [
          -71.9754797,
          -13.518327
        ]
      },
      "id": "node/4993540324"
    },
    {
      "type": "Feature",
      "properties": {
        "@id": "node/4993541221",
        "name": "Hoteles Casa Campesina",
        "name:es": "Hoteles Casa Campesina",
        "tourism": "hotel"
      },
      "geometry": {
        "type": "Point",
        "coordinates": [
          -71.9749553,
          -13.5170047
        ]
      },
      "id": "node/4993541221"
    },
    {
      "type": "Feature",
      "properties": {
        "@id": "node/4993541521",
        "name": "Hotel Ruinas",
        "name:es": "Hotel Ruinas",
        "tourism": "hotel"
      },
      "geometry": {
        "type": "Point",
        "coordinates": [
          -71.9753492,
          -13.5165538
        ]
      },
      "id": "node/4993541521"
    },
    {
      "type": "Feature",
      "properties": {
        "@id": "node/4993542021",
        "name": "Amerinka boutique Hotel",
        "name:es": "Amerinka boutique Hotel",
        "tourism": "hotel"
      },
      "geometry": {
        "type": "Point",
        "coordinates": [
          -71.9806026,
          -13.5187257
        ]
      },
      "id": "node/4993542021"
    },
    {
      "type": "Feature",
      "properties": {
        "@id": "node/4993542022",
        "name": "Hotel del Sur",
        "name:es": "Hotel del Sur",
        "tourism": "hotel"
      },
      "geometry": {
        "type": "Point",
        "coordinates": [
          -71.9809919,
          -13.5213506
        ]
      },
      "id": "node/4993542022"
    },
    {
      "type": "Feature",
      "properties": {
        "@id": "node/4993542121",
        "internet_access": "wlan",
        "internet_access:fee": "no",
        "name": "Monasterio del Inka Machupicchu",
        "name:es": "Monasterio del Inka Machupicchu",
        "tourism": "hotel"
      },
      "geometry": {
        "type": "Point",
        "coordinates": [
          -71.9797676,
          -13.5199334
        ]
      },
      "id": "node/4993542121"
    },
    {
      "type": "Feature",
      "properties": {
        "@id": "node/4993542421",
        "name": "Boz Art Hotel boutique",
        "name:es": "Boz Art Hotel boutique",
        "tourism": "hotel"
      },
      "geometry": {
        "type": "Point",
        "coordinates": [
          -71.9771872,
          -13.5191972
        ]
      },
      "id": "node/4993542421"
    },
    {
      "type": "Feature",
      "properties": {
        "@id": "node/4995328741",
        "addr:city": "Cusco",
        "addr:housenumber": "391",
        "addr:postcode": "084",
        "addr:street": "Teatro",
        "email": "info@teatroinka.com",
        "internet_access": "yes",
        "name": "TEATRO INKA",
        "rooms": "15",
        "tourism": "hotel"
      },
      "geometry": {
        "type": "Point",
        "coordinates": [
          -71.9822709,
          -13.5164595
        ]
      },
      "id": "node/4995328741"
    },
    {
      "type": "Feature",
      "properties": {
        "@id": "node/4998735424",
        "name": "Hotel Raulito",
        "name:es": "Hotel Raulito",
        "tourism": "hotel"
      },
      "geometry": {
        "type": "Point",
        "coordinates": [
          -71.3437683,
          -14.1879781
        ]
      },
      "id": "node/4998735424"
    },
    {
      "type": "Feature",
      "properties": {
        "@id": "node/4998735427",
        "name": "Hotel Wilkamayu",
        "name:es": "Hotel Wilkamayu",
        "tourism": "hotel"
      },
      "geometry": {
        "type": "Point",
        "coordinates": [
          -71.2273206,
          -14.2612583
        ]
      },
      "id": "node/4998735427"
    },
    {
      "type": "Feature",
      "properties": {
        "@id": "node/5012845724",
        "internet_access": "wlan",
        "name": "hospedaje Garcilaso",
        "name:es": "hospedaje Garcilaso",
        "tourism": "hotel"
      },
      "geometry": {
        "type": "Point",
        "coordinates": [
          -71.9742765,
          -13.5228595
        ]
      },
      "id": "node/5012845724"
    },
    {
      "type": "Feature",
      "properties": {
        "@id": "node/5022181522",
        "name": "La posada de Pumacahua",
        "name:es": "La posada de Pumacahua",
        "tourism": "hotel"
      },
      "geometry": {
        "type": "Point",
        "coordinates": [
          -71.9674017,
          -13.5283216
        ]
      },
      "id": "node/5022181522"
    },
    {
      "type": "Feature",
      "properties": {
        "@id": "node/5041932232",
        "addr:city": "Cusco",
        "addr:housenumber": "288",
        "addr:street": "Matará",
        "internet_access": "wlan",
        "name": "Hotel Inkaspacha",
        "stars": "2",
        "tourism": "hotel"
      },
      "geometry": {
        "type": "Point",
        "coordinates": [
          -71.9791487,
          -13.5211925
        ]
      },
      "id": "node/5041932232"
    },
    {
      "type": "Feature",
      "properties": {
        "@id": "node/5067424623",
        "addr:housenumber": "1952",
        "addr:postcode": "08200",
        "addr:street": "Diagonal Angamos",
        "email": "info@hotelinkasyllari.com",
        "internet_access": "wlan",
        "name": "Inka's Yllari",
        "name:en": "Inka's Yllari",
        "name:es": "Inka's Yllari",
        "opening_hours": "24/7",
        "phone": "+51 84 234821",
        "tourism": "hotel",
        "website": "http://www.hotelinkasyllari.com"
      },
      "geometry": {
        "type": "Point",
        "coordinates": [
          -71.9531875,
          -13.527216
        ]
      },
      "id": "node/5067424623"
    },
    {
      "type": "Feature",
      "properties": {
        "@id": "node/5080428321",
        "addr:housenumber": "105",
        "addr:street": "Huanacaure street",
        "internet_access": "wlan",
        "name:en": "Rupa Wasi Eco Lodge",
        "phone": "+51 84 211101",
        "tourism": "hotel",
        "website": "http://rupawasi.net"
      },
      "geometry": {
        "type": "Point",
        "coordinates": [
          -72.5263109,
          -13.1537171
        ]
      },
      "id": "node/5080428321"
    },
    {
      "type": "Feature",
      "properties": {
        "@id": "node/5084734890",
        "name": "Hotel Taypikala Boutique Machupicchu",
        "tourism": "hotel"
      },
      "geometry": {
        "type": "Point",
        "coordinates": [
          -72.5230144,
          -13.1535598
        ]
      },
      "id": "node/5084734890"
    },
    {
      "type": "Feature",
      "properties": {
        "@id": "node/5084745441",
        "internet_access": "wlan",
        "name": "Hotel Taypikala Cusco",
        "tourism": "hotel"
      },
      "geometry": {
        "type": "Point",
        "coordinates": [
          -71.974257,
          -13.5210237
        ]
      },
      "id": "node/5084745441"
    },
    {
      "type": "Feature",
      "properties": {
        "@id": "node/5099082849",
        "contact:phone": "+51 84 254852",
        "name": "Casa Colibri Ecolodge",
        "tourism": "hotel",
        "website": "http://www.casacolibriecolodge.com"
      },
      "geometry": {
        "type": "Point",
        "coordinates": [
          -72.1333686,
          -13.2942269
        ]
      },
      "id": "node/5099082849"
    },
    {
      "type": "Feature",
      "properties": {
        "@id": "node/5177362025",
        "name": "Samary",
        "tourism": "hotel"
      },
      "geometry": {
        "type": "Point",
        "coordinates": [
          -71.8846281,
          -14.5105796
        ]
      },
      "id": "node/5177362025"
    },
    {
      "type": "Feature",
      "properties": {
        "@id": "node/5194380727",
        "name:en": "Mountain lodge of Perou",
        "tourism": "hotel"
      },
      "geometry": {
        "type": "Point",
        "coordinates": [
          -72.1047058,
          -13.1344947
        ]
      },
      "id": "node/5194380727"
    },
    {
      "type": "Feature",
      "properties": {
        "@id": "node/5203372070",
        "name": "Sacred Valley Lodge Urubamba",
        "tourism": "hotel"
      },
      "geometry": {
        "type": "Point",
        "coordinates": [
          -72.1347331,
          -13.2964371
        ]
      },
      "id": "node/5203372070"
    },
    {
      "type": "Feature",
      "properties": {
        "@id": "node/5221640033",
        "addr:street": "Jirón Grau",
        "name": "Hospedaje Capuli",
        "tourism": "hotel"
      },
      "geometry": {
        "type": "Point",
        "coordinates": [
          -72.1153267,
          -13.3044525
        ]
      },
      "id": "node/5221640033"
    },
    {
      "type": "Feature",
      "properties": {
        "@id": "node/5221643825",
        "addr:housenumber": "224",
        "addr:street": "Jirón Grau",
        "name": "Hospedaje Pino",
        "tourism": "hotel"
      },
      "geometry": {
        "type": "Point",
        "coordinates": [
          -72.1153635,
          -13.3045922
        ]
      },
      "id": "node/5221643825"
    },
    {
      "type": "Feature",
      "properties": {
        "@id": "node/5221646059",
        "name": "Hotel Quilla",
        "phone": "+51 958198190",
        "tourism": "hotel"
      },
      "geometry": {
        "type": "Point",
        "coordinates": [
          -72.1159377,
          -13.3037643
        ]
      },
      "id": "node/5221646059"
    },
    {
      "type": "Feature",
      "properties": {
        "@id": "node/5231427522",
        "addr:housenumber": "188",
        "addr:street": "Choquechaca",
        "internet_access": "wlan",
        "name:en": "Andean Home",
        "tourism": "hotel"
      },
      "geometry": {
        "type": "Point",
        "coordinates": [
          -71.9761719,
          -13.5148811
        ]
      },
      "id": "node/5231427522"
    },
    {
      "type": "Feature",
      "properties": {
        "@id": "node/5233607075",
        "addr:city": "Cusco",
        "addr:street": "Carmen Bajo",
        "addr:unit": "257",
        "internet_access": "yes",
        "name": "Apu Huascaran Hostal",
        "stars": "3",
        "tourism": "hotel"
      },
      "geometry": {
        "type": "Point",
        "coordinates": [
          -71.9736901,
          -13.5161293
        ]
      },
      "id": "node/5233607075"
    },
    {
      "type": "Feature",
      "properties": {
        "@id": "node/5278348140",
        "name:en": "Mountain Hotel",
        "tourism": "hotel"
      },
      "geometry": {
        "type": "Point",
        "coordinates": [
          -72.5942542,
          -13.1307034
        ]
      },
      "id": "node/5278348140"
    },
    {
      "type": "Feature",
      "properties": {
        "@id": "node/5309711633",
        "addr:city": "Machu Picchu Pueblo",
        "addr:housenumber": "615",
        "addr:postcode": "08681",
        "addr:street": "Calle Wakanki",
        "brand": "Golden Sunrise",
        "contact:facebook": "https://www.facebook.com/GoldenSunriseMachupicchu/",
        "internet_access": "wlan",
        "internet_access:fee": "yes",
        "internet_access:ssid": "Golden Sunrise",
        "name": "Golden Sunrise Machupicchu",
        "operator": "Golden Sunrise",
        "phone": "+51 993827043",
        "rooms": "40",
        "smoking": "outside",
        "stars": "4",
        "tourism": "hotel"
      },
      "geometry": {
        "type": "Point",
        "coordinates": [
          -72.522374,
          -13.1570249
        ]
      },
      "id": "node/5309711633"
    },
    {
      "type": "Feature",
      "properties": {
        "@id": "node/5335117210",
        "name": "Hospedaje Rafael",
        "tourism": "hotel"
      },
      "geometry": {
        "type": "Point",
        "coordinates": [
          -71.6260563,
          -13.6874927
        ]
      },
      "id": "node/5335117210"
    },
    {
      "type": "Feature",
      "properties": {
        "@id": "node/5438675221",
        "addr:city": "Machu Picchu Pueblo",
        "addr:housenumber": "B11",
        "addr:street": "Calle Kori Wakanki",
        "internet_access": "wlan",
        "name": "Illary Inn",
        "stars": "2",
        "tourism": "hotel"
      },
      "geometry": {
        "type": "Point",
        "coordinates": [
          -72.523547,
          -13.1561232
        ]
      },
      "id": "node/5438675221"
    },
    {
      "type": "Feature",
      "properties": {
        "@id": "node/5484418623",
        "addr:city": "Cusco",
        "addr:housenumber": "885",
        "addr:postcode": "008400",
        "addr:street": "Avenida Pardo",
        "email": "hospedajesamblena@gmail.com",
        "internet_access": "wlan",
        "internet_access:fee": "no",
        "name": "Casa La Sambleña Inn",
        "opening_hours": "24/7",
        "operator": "Casa La Sambleña",
        "phone": "+51 84 594741",
        "tourism": "hotel",
        "website": "http://www.hotelsamblena.com"
      },
      "geometry": {
        "type": "Point",
        "coordinates": [
          -71.9740151,
          -13.5243642
        ]
      },
      "id": "node/5484418623"
    },
    {
      "type": "Feature",
      "properties": {
        "@id": "node/5502951721",
        "name": "hotel Bolívar",
        "tourism": "hotel"
      },
      "geometry": {
        "type": "Point",
        "coordinates": [
          -71.9360421,
          -13.529994
        ]
      },
      "id": "node/5502951721"
    },
    {
      "type": "Feature",
      "properties": {
        "@id": "node/5519356822",
        "addr:housenumber": "806",
        "addr:street": "Avenida Pachacutec",
        "name": "Andean Tetra Hotel",
        "phone": "+5184211021",
        "tourism": "hotel",
        "website": "http://www.andeanterrahotel.com"
      },
      "geometry": {
        "type": "Point",
        "coordinates": [
          -72.5238139,
          -13.1541616
        ]
      },
      "id": "node/5519356822"
    },
    {
      "type": "Feature",
      "properties": {
        "@id": "node/5520640697",
        "addr:city": "Machu Picchu Pueblo",
        "addr:housenumber": "500",
        "addr:street": "Calle Wakanki",
        "contact:facebook": "https://www.facebook.com/HOSTALRIODORADOMACHUPICCHU/",
        "name": "Rio Dorado",
        "phone": "+51 84 211030",
        "tourism": "hotel"
      },
      "geometry": {
        "type": "Point",
        "coordinates": [
          -72.5228931,
          -13.1562864
        ]
      },
      "id": "node/5520640697"
    },
    {
      "type": "Feature",
      "properties": {
        "@id": "node/5523041675",
        "addr:housenumber": "649",
        "addr:street": "Avenida Centenario",
        "name": "Hostal Machu Picchu inn",
        "tourism": "hotel"
      },
      "geometry": {
        "type": "Point",
        "coordinates": [
          -71.9763922,
          -13.5234735
        ]
      },
      "id": "node/5523041675"
    },
    {
      "type": "Feature",
      "properties": {
        "@id": "node/5590215021",
        "addr:housenumber": "320",
        "addr:street": "Choquechaca",
        "internet_access": "wlan",
        "name": "Kimsa Hotel",
        "name:en": "Kimsa Hotel",
        "tourism": "hotel"
      },
      "geometry": {
        "type": "Point",
        "coordinates": [
          -71.9768094,
          -13.5138219
        ]
      },
      "id": "node/5590215021"
    },
    {
      "type": "Feature",
      "properties": {
        "@id": "node/5601056621",
        "internet_access": "wlan",
        "name": "El Retablo",
        "tourism": "hotel"
      },
      "geometry": {
        "type": "Point",
        "coordinates": [
          -71.9786887,
          -13.5136389
        ]
      },
      "id": "node/5601056621"
    },
    {
      "type": "Feature",
      "properties": {
        "@id": "node/5611392523",
        "name": "El Cantada",
        "tourism": "hotel"
      },
      "geometry": {
        "type": "Point",
        "coordinates": [
          -71.9766151,
          -13.5124308
        ]
      },
      "id": "node/5611392523"
    },
    {
      "type": "Feature",
      "properties": {
        "@id": "node/5618266437",
        "addr:city": "Cusco",
        "addr:housenumber": "257-d",
        "addr:street": "Pumapaccha",
        "email": "luchovalencia_82@hotmail.com",
        "name": "Hostal El Auqui Cusco",
        "tourism": "hotel"
      },
      "geometry": {
        "type": "Point",
        "coordinates": [
          -71.9726703,
          -13.5167265
        ]
      },
      "id": "node/5618266437"
    },
    {
      "type": "Feature",
      "properties": {
        "@id": "node/5624133321",
        "addr:city": "Machu Picchu Pueblo",
        "addr:housenumber": "2",
        "addr:street": "Calle Kori Wakanki",
        "email": "reservas@hatunsamayhotel.com",
        "name": "Hatun Samay",
        "phone": "+51 84 435811",
        "tourism": "hotel",
        "website": "http://www.hatunsamay.com/"
      },
      "geometry": {
        "type": "Point",
        "coordinates": [
          -72.5234869,
          -13.1560178
        ]
      },
      "id": "node/5624133321"
    },
    {
      "type": "Feature",
      "properties": {
        "@id": "node/5642160221",
        "name": "Brayan",
        "tourism": "hotel"
      },
      "geometry": {
        "type": "Point",
        "coordinates": [
          -72.5547924,
          -13.0055688
        ]
      },
      "id": "node/5642160221"
    },
    {
      "type": "Feature",
      "properties": {
        "@id": "node/5648238024",
        "name": "Hotel del Inca Casona Q'uera",
        "tourism": "hotel"
      },
      "geometry": {
        "type": "Point",
        "coordinates": [
          -71.9793118,
          -13.5197535
        ]
      },
      "id": "node/5648238024"
    },
    {
      "type": "Feature",
      "properties": {
        "@id": "node/5662223834",
        "name": "Condor Palace",
        "tourism": "hotel"
      },
      "geometry": {
        "type": "Point",
        "coordinates": [
          -72.5232482,
          -13.1534019
        ]
      },
      "id": "node/5662223834"
    },
    {
      "type": "Feature",
      "properties": {
        "@id": "node/5662228621",
        "name": "Qory Condor Palace",
        "tourism": "hotel"
      },
      "geometry": {
        "type": "Point",
        "coordinates": [
          -72.5239168,
          -13.1535497
        ]
      },
      "id": "node/5662228621"
    },
    {
      "type": "Feature",
      "properties": {
        "@id": "node/5711456167",
        "addr:district": "Mollepata",
        "addr:postcode": "08645",
        "email": "info@mountainlodgesofperu.com",
        "name": "Salkantay Lodge",
        "phone": "+51 84 262640",
        "tourism": "hotel",
        "website": "https://www.mountainlodgesofperu.com/"
      },
      "geometry": {
        "type": "Point",
        "coordinates": [
          -72.5744856,
          -13.3945251
        ]
      },
      "id": "node/5711456167"
    },
    {
      "type": "Feature",
      "properties": {
        "@id": "node/5711483291",
        "name": "Wayra Lodge",
        "tourism": "hotel",
        "website": "https://www.mountainlodgesofperu.com/"
      },
      "geometry": {
        "type": "Point",
        "coordinates": [
          -72.6028748,
          -13.3277498
        ]
      },
      "id": "node/5711483291"
    },
    {
      "type": "Feature",
      "properties": {
        "@id": "node/5747637522",
        "addr:housenumber": "133",
        "addr:street": "Choquechaca",
        "email": "reservaswakapunku@gmail.com",
        "internet_access": "wlan",
        "name": "Wakapunku",
        "opening_hours": "24/7",
        "phone": "+5184226631",
        "tourism": "hotel",
        "website": "http://www.wakapunkuboutique.com"
      },
      "geometry": {
        "type": "Point",
        "coordinates": [
          -71.9760214,
          -13.5152876
        ]
      },
      "id": "node/5747637522"
    },
    {
      "type": "Feature",
      "properties": {
        "@id": "node/5787605862",
        "addr:housenumber": "322",
        "addr:street": "Avenida Baja",
        "internet_access": "wlan",
        "name": "Inka Hallpa",
        "tourism": "hotel"
      },
      "geometry": {
        "type": "Point",
        "coordinates": [
          -71.9853467,
          -13.518942
        ]
      },
      "id": "node/5787605862"
    },
    {
      "type": "Feature",
      "properties": {
        "@id": "node/5821527354",
        "name": "Hostal Yanmarco",
        "tourism": "hotel"
      },
      "geometry": {
        "type": "Point",
        "coordinates": [
          -71.3219929,
          -13.6667922
        ]
      },
      "id": "node/5821527354"
    },
    {
      "type": "Feature",
      "properties": {
        "@id": "node/5821545853",
        "name": "Hostal l'Ausangate",
        "tourism": "hotel"
      },
      "geometry": {
        "type": "Point",
        "coordinates": [
          -71.2416808,
          -13.7189117
        ]
      },
      "id": "node/5821545853"
    },
    {
      "type": "Feature",
      "properties": {
        "@id": "node/5829459326",
        "name": "Hospedaje el Nogal",
        "tourism": "hotel"
      },
      "geometry": {
        "type": "Point",
        "coordinates": [
          -71.6772931,
          -13.6731182
        ]
      },
      "id": "node/5829459326"
    },
    {
      "type": "Feature",
      "properties": {
        "@id": "node/5847540469",
        "name": "Hostal Andenes",
        "tourism": "hotel"
      },
      "geometry": {
        "type": "Point",
        "coordinates": [
          -72.2644671,
          -13.2585102
        ]
      },
      "id": "node/5847540469"
    },
    {
      "type": "Feature",
      "properties": {
        "@id": "node/5847540509",
        "name": "Casa de Mama",
        "tourism": "hotel"
      },
      "geometry": {
        "type": "Point",
        "coordinates": [
          -72.2647104,
          -13.2589245
        ]
      },
      "id": "node/5847540509"
    },
    {
      "type": "Feature",
      "properties": {
        "@id": "node/5849993501",
        "addr:city": "Machupicchu Pueblo",
        "addr:housenumber": "111",
        "addr:street": "Calle Lloque Yupanqui",
        "internet_access": "wlan",
        "internet_access:fee": "no",
        "name": "Hostal Waynapata",
        "tourism": "hotel"
      },
      "geometry": {
        "type": "Point",
        "coordinates": [
          -72.52508,
          -13.1541301
        ]
      },
      "id": "node/5849993501"
    },
    {
      "type": "Feature",
      "properties": {
        "@id": "node/5857402388",
        "name": "Royal Inka",
        "stars": "3",
        "tourism": "hotel"
      },
      "geometry": {
        "type": "Point",
        "coordinates": [
          -71.9808875,
          -13.5165281
        ]
      },
      "id": "node/5857402388"
    },
    {
      "type": "Feature",
      "properties": {
        "@id": "node/5859902040",
        "name": "Hospedaje Casita Campestre",
        "tourism": "hotel"
      },
      "geometry": {
        "type": "Point",
        "coordinates": [
          -71.2647913,
          -13.8826614
        ]
      },
      "id": "node/5859902040"
    },
    {
      "type": "Feature",
      "properties": {
        "@id": "node/5860097588",
        "building": "house",
        "internet_access": "wlan",
        "internet_access:fee": "no",
        "name": "Andene's House",
        "rooms": "2",
        "smoking": "no",
        "tourism": "hotel",
        "website": "https://www.booking.com/hotel/pe/andene-s-house.en-gb.html"
      },
      "geometry": {
        "type": "Point",
        "coordinates": [
          -71.9576043,
          -13.5193555
        ]
      },
      "id": "node/5860097588"
    },
    {
      "type": "Feature",
      "properties": {
        "@id": "node/5884148086",
        "name:en": "Balcony continental",
        "tourism": "hotel"
      },
      "geometry": {
        "type": "Point",
        "coordinates": [
          -71.9770064,
          -13.5135574
        ]
      },
      "id": "node/5884148086"
    },
    {
      "type": "Feature",
      "properties": {
        "@id": "node/5930451836",
        "addr:city": "Cusco",
        "addr:housenumber": "142",
        "addr:street": "Portal Espinar",
        "brand": "Casa Andina",
        "internet_access": "wlan",
        "internet_access:fee": "no",
        "name": "Casa Andina Standard Cusco Plaza",
        "phone": "+51 84 231733",
        "smoking": "no",
        "stars": "3",
        "tourism": "hotel",
        "website": "https://www.casa-andina.com/destinos/cusco/standard-cusco-plaza/"
      },
      "geometry": {
        "type": "Point",
        "coordinates": [
          -71.9793902,
          -13.5176814
        ]
      },
      "id": "node/5930451836"
    },
    {
      "type": "Feature",
      "properties": {
        "@id": "node/5930479440",
        "addr:city": "Cusco",
        "addr:housenumber": "806",
        "addr:street": "Avenida Garcilaso",
        "name": "El Puma Hotel",
        "tourism": "hotel",
        "website": "http://www.elpumahotelcusco.com"
      },
      "geometry": {
        "type": "Point",
        "coordinates": [
          -71.9735817,
          -13.5227348
        ]
      },
      "id": "node/5930479440"
    },
    {
      "type": "Feature",
      "properties": {
        "@id": "node/5930479963",
        "name": "Pumas Cusco Hotel",
        "opening_hours": "24/7",
        "tourism": "hotel"
      },
      "geometry": {
        "type": "Point",
        "coordinates": [
          -71.9700419,
          -13.5169235
        ]
      },
      "id": "node/5930479963"
    },
    {
      "type": "Feature",
      "properties": {
        "@id": "node/5960470986",
        "name": "Rojas",
        "tourism": "hotel"
      },
      "geometry": {
        "type": "Point",
        "coordinates": [
          -71.4074669,
          -14.7990865
        ]
      },
      "id": "node/5960470986"
    },
    {
      "type": "Feature",
      "properties": {
        "@id": "node/6006214585",
        "internet_access": "wlan",
        "name": "Espinar Plaza Hotel",
        "tourism": "hotel",
        "website": "https://www.travelingcusco.com/"
      },
      "geometry": {
        "type": "Point",
        "coordinates": [
          -71.4109344,
          -14.7919417
        ]
      },
      "id": "node/6006214585"
    },
    {
      "type": "Feature",
      "properties": {
        "@id": "node/6006214587",
        "addr:street": "Avenida San Martín",
        "internet_access": "wlan",
        "name": "Espinar Plaza Hotel",
        "opening_hours": "24/7",
        "tourism": "hotel",
        "website": "http://espinarperu.com"
      },
      "geometry": {
        "type": "Point",
        "coordinates": [
          -71.4109342,
          -14.7922176
        ]
      },
      "id": "node/6006214587"
    },
    {
      "type": "Feature",
      "properties": {
        "@id": "node/6008113690",
        "name": "Hostal La Mar",
        "tourism": "hotel"
      },
      "geometry": {
        "type": "Point",
        "coordinates": [
          -73.7868486,
          -12.6208912
        ]
      },
      "id": "node/6008113690"
    },
    {
      "type": "Feature",
      "properties": {
        "@id": "node/6008113692",
        "name": "Hotel Qoricancha",
        "tourism": "hotel"
      },
      "geometry": {
        "type": "Point",
        "coordinates": [
          -73.791314,
          -12.6170724
        ]
      },
      "id": "node/6008113692"
    },
    {
      "type": "Feature",
      "properties": {
        "@id": "node/6008159285",
        "name": "Hotel Los Ficus Kimbiri",
        "tourism": "hotel"
      },
      "geometry": {
        "type": "Point",
        "coordinates": [
          -73.7910413,
          -12.6172822
        ]
      },
      "id": "node/6008159285"
    },
    {
      "type": "Feature",
      "properties": {
        "@id": "node/6016009085",
        "name": "Hospedaje Killarumiyoc",
        "phone": "+51 986889608",
        "tourism": "hotel"
      },
      "geometry": {
        "type": "Point",
        "coordinates": [
          -72.304133,
          -13.4567648
        ]
      },
      "id": "node/6016009085"
    },
    {
      "type": "Feature",
      "properties": {
        "@id": "node/6016881986",
        "addr:city": "Suyckutambo",
        "addr:postcode": "08360",
        "addr:state": "Espinar",
        "addr:street": "Calle Arequipa",
        "description": "Experience real Peruvian farmlife! In Italy they invented Agriturismo, in Peru they call it Turismo Vivencial. \n\nThis family run farm on the riverside is a great place to relax. On the other hand it offers many activities like hiking, cycling, fishing, mi",
        "email": "martijnharberts@hotmail.com",
        "image": "https://assets-us-01.kc-usercontent.com/a4312a07-6bca-481d-9b18-cf0bb6ec0788/6996d1dd-73f7-4c8f-9749-00a0b967937b/Farm1.jpg",
        "internet_access": "no",
        "name": "Casa Hospedage Mayutinkuy",
        "phone": "+51958256859",
        "rooms": "5",
        "tourism": "hotel",
        "website": "http://www.espinarperu.com"
      },
      "geometry": {
        "type": "Point",
        "coordinates": [
          -71.6444742,
          -15.0136012
        ]
      },
      "id": "node/6016881986"
    },
    {
      "type": "Feature",
      "properties": {
        "@id": "node/6073334086",
        "name": "Perumanta B&B",
        "tourism": "hotel"
      },
      "geometry": {
        "type": "Point",
        "coordinates": [
          -72.5233676,
          -13.153578
        ]
      },
      "id": "node/6073334086"
    },
    {
      "type": "Feature",
      "properties": {
        "@id": "node/6093272071",
        "addr:housenumber": "200",
        "addr:street": "M. Castilla",
        "name": "Halcón de oro",
        "name:es": "Halcón de oro",
        "tourism": "hotel"
      },
      "geometry": {
        "type": "Point",
        "coordinates": [
          -71.9384723,
          -13.5307514
        ]
      },
      "id": "node/6093272071"
    },
    {
      "type": "Feature",
      "properties": {
        "@id": "node/6109606685",
        "addr:housenumber": "156",
        "addr:street": "Qheswa",
        "internet_access": "wlan",
        "name": "Chusay Rooftop Homestay",
        "tourism": "hotel"
      },
      "geometry": {
        "type": "Point",
        "coordinates": [
          -71.9854232,
          -13.5211026
        ]
      },
      "id": "node/6109606685"
    },
    {
      "type": "Feature",
      "properties": {
        "@id": "node/6186761985",
        "addr:housenumber": "301",
        "addr:street": "Calle Collasuyo",
        "name": "Renato's house",
        "tourism": "hotel"
      },
      "geometry": {
        "type": "Point",
        "coordinates": [
          -72.5261915,
          -13.1541745
        ]
      },
      "id": "node/6186761985"
    },
    {
      "type": "Feature",
      "properties": {
        "@id": "node/6188610107",
        "name": "Hospedaje rosita",
        "tourism": "hotel"
      },
      "geometry": {
        "type": "Point",
        "coordinates": [
          -71.4167927,
          -13.9804181
        ]
      },
      "id": "node/6188610107"
    },
    {
      "type": "Feature",
      "properties": {
        "@id": "node/6201589685",
        "name": "Hospedaje de Mario",
        "tourism": "hotel"
      },
      "geometry": {
        "type": "Point",
        "coordinates": [
          -71.9465717,
          -13.0540161
        ]
      },
      "id": "node/6201589685"
    },
    {
      "type": "Feature",
      "properties": {
        "@id": "node/6205506985",
        "tourism": "hotel"
      },
      "geometry": {
        "type": "Point",
        "coordinates": [
          -71.9528538,
          -13.321584
        ]
      },
      "id": "node/6205506985"
    },
    {
      "type": "Feature",
      "properties": {
        "@id": "node/6211172410",
        "name": "Quechuas Guesthouse",
        "tourism": "hotel"
      },
      "geometry": {
        "type": "Point",
        "coordinates": [
          -72.0095664,
          -13.5064127
        ]
      },
      "id": "node/6211172410"
    },
    {
      "type": "Feature",
      "properties": {
        "@id": "node/6213763705",
        "name": "Hanaq Mayu Sacred Valley",
        "tourism": "hotel"
      },
      "geometry": {
        "type": "Point",
        "coordinates": [
          -72.1088707,
          -13.3112488
        ]
      },
      "id": "node/6213763705"
    },
    {
      "type": "Feature",
      "properties": {
        "@id": "node/6213886489",
        "name": "Roca Fuerte - Sacred Valley Hotel",
        "tourism": "hotel"
      },
      "geometry": {
        "type": "Point",
        "coordinates": [
          -72.1085842,
          -13.3094153
        ]
      },
      "id": "node/6213886489"
    },
    {
      "type": "Feature",
      "properties": {
        "@id": "node/6213886490",
        "name": "Valley and Life Cottages",
        "tourism": "hotel"
      },
      "geometry": {
        "type": "Point",
        "coordinates": [
          -72.1067215,
          -13.309692
        ]
      },
      "id": "node/6213886490"
    },
    {
      "type": "Feature",
      "properties": {
        "@id": "node/6214952981",
        "name": "Hotel Agustos Urubamba",
        "tourism": "hotel"
      },
      "geometry": {
        "type": "Point",
        "coordinates": [
          -72.1111044,
          -13.3056244
        ]
      },
      "id": "node/6214952981"
    },
    {
      "type": "Feature",
      "properties": {
        "@id": "node/6214953818",
        "name": "Hotel Amaru Valle",
        "tourism": "hotel"
      },
      "geometry": {
        "type": "Point",
        "coordinates": [
          -72.1153154,
          -13.3021708
        ]
      },
      "id": "node/6214953818"
    },
    {
      "type": "Feature",
      "properties": {
        "@id": "node/6219471249",
        "name": "Fondo Mayupata",
        "tourism": "hotel"
      },
      "geometry": {
        "type": "Point",
        "coordinates": [
          -72.1103603,
          -13.2851061
        ]
      },
      "id": "node/6219471249"
    },
    {
      "type": "Feature",
      "properties": {
        "@id": "node/6225574485",
        "internet_access": "wlan",
        "name": "Samadhi Sacred Valley Yoga",
        "tourism": "hotel"
      },
      "geometry": {
        "type": "Point",
        "coordinates": [
          -72.0287014,
          -13.3334286
        ]
      },
      "id": "node/6225574485"
    },
    {
      "type": "Feature",
      "properties": {
        "@id": "node/6235156285",
        "name": "Hospedaje de Guido",
        "name:es": "Hospedaje de Guido - Comunidad de Taucca",
        "tourism": "hotel"
      },
      "geometry": {
        "type": "Point",
        "coordinates": [
          -72.0001534,
          -13.4102626
        ]
      },
      "id": "node/6235156285"
    },
    {
      "type": "Feature",
      "properties": {
        "@id": "node/6235966687",
        "internet_access": "yes",
        "internet_access:fee": "no",
        "name": "Hotel Hatun Inti Classic",
        "tourism": "hotel"
      },
      "geometry": {
        "type": "Point",
        "coordinates": [
          -72.5235864,
          -13.154139
        ]
      },
      "id": "node/6235966687"
    },
    {
      "type": "Feature",
      "properties": {
        "@id": "node/6264783485",
        "addr:housenumber": "299",
        "addr:postcode": "084",
        "addr:street": "K'uychipunku",
        "email": "reservas@lacasadelvisitante.com",
        "internet_access": "wlan",
        "name": "La Casa del visitante",
        "opening_hours": "24/7",
        "phone": "+51 84 585430",
        "tourism": "hotel",
        "website": "http://www.lacasadelvisitante.com"
      },
      "geometry": {
        "type": "Point",
        "coordinates": [
          -71.9770391,
          -13.5220217
        ]
      },
      "id": "node/6264783485"
    },
    {
      "type": "Feature",
      "properties": {
        "@id": "node/6293422986",
        "internet_access": "wlan",
        "name": "Ayna",
        "tourism": "hotel"
      },
      "geometry": {
        "type": "Point",
        "coordinates": [
          -72.5257081,
          -13.1542795
        ]
      },
      "id": "node/6293422986"
    },
    {
      "type": "Feature",
      "properties": {
        "@id": "node/6311585587",
        "name": "Koricancha",
        "tourism": "hotel"
      },
      "geometry": {
        "type": "Point",
        "coordinates": [
          -72.5550466,
          -13.0055456
        ]
      },
      "id": "node/6311585587"
    },
    {
      "type": "Feature",
      "properties": {
        "@id": "node/6327365685",
        "addr:street": "piquichaqui",
        "name": "Inti Wasi Valle",
        "tourism": "hotel"
      },
      "geometry": {
        "type": "Point",
        "coordinates": [
          -72.2626433,
          -13.2598764
        ]
      },
      "id": "node/6327365685"
    },
    {
      "type": "Feature",
      "properties": {
        "@id": "node/6394345634",
        "addr:block": "D",
        "addr:city": "Machu Picchu Pueblo",
        "addr:neighbourhood": "Urbanización Las Orquídeas",
        "addr:plot": "1",
        "addr:postcode": "08681",
        "internet_access": "yes",
        "name": "Machupicchu Drean",
        "phone": "+51 979362654",
        "rooms": "15",
        "tourism": "hotel"
      },
      "geometry": {
        "type": "Point",
        "coordinates": [
          -72.522945,
          -13.1564054
        ]
      },
      "id": "node/6394345634"
    },
    {
      "type": "Feature",
      "properties": {
        "@id": "node/6410015685",
        "name": "Sacred Valley B&B",
        "tourism": "hotel"
      },
      "geometry": {
        "type": "Point",
        "coordinates": [
          -72.2686171,
          -13.2581542
        ]
      },
      "id": "node/6410015685"
    },
    {
      "type": "Feature",
      "properties": {
        "@id": "node/6412736301",
        "breakfast": "yes",
        "internet_access": "wlan",
        "name": "Rostros del Valley",
        "tourism": "hotel",
        "wheelchair": "no"
      },
      "geometry": {
        "type": "Point",
        "coordinates": [
          -72.2627556,
          -13.257156
        ]
      },
      "id": "node/6412736301"
    },
    {
      "type": "Feature",
      "properties": {
        "@id": "node/6419896084",
        "name": "Qori Kintu Pachacuteq",
        "tourism": "hotel"
      },
      "geometry": {
        "type": "Point",
        "coordinates": [
          -71.9663325,
          -13.532896
        ]
      },
      "id": "node/6419896084"
    },
    {
      "type": "Feature",
      "properties": {
        "@id": "node/6439154885",
        "internet_access": "wlan",
        "name": "Hostal Pachamama",
        "tourism": "hotel"
      },
      "geometry": {
        "type": "Point",
        "coordinates": [
          -72.2632099,
          -13.2573262
        ]
      },
      "id": "node/6439154885"
    },
    {
      "type": "Feature",
      "properties": {
        "@id": "node/6465100786",
        "addr:housenumber": "675",
        "addr:street": "Siete Angelitos",
        "internet_access": "wlan",
        "name": "Wasi 7 sanblas",
        "tourism": "hotel"
      },
      "geometry": {
        "type": "Point",
        "coordinates": [
          -71.9753218,
          -13.5134809
        ]
      },
      "id": "node/6465100786"
    },
    {
      "type": "Feature",
      "properties": {
        "@id": "node/6465205085",
        "addr:housenumber": "333",
        "addr:street": "Siete Borreguitos",
        "internet_access": "wlan",
        "name": "Hostal El Parque",
        "phone": "+519566290604",
        "tourism": "hotel"
      },
      "geometry": {
        "type": "Point",
        "coordinates": [
          -71.9695349,
          -13.5296692
        ]
      },
      "id": "node/6465205085"
    },
    {
      "type": "Feature",
      "properties": {
        "@id": "node/6484797885",
        "tourism": "hotel"
      },
      "geometry": {
        "type": "Point",
        "coordinates": [
          -71.9669634,
          -13.5344317
        ]
      },
      "id": "node/6484797885"
    },
    {
      "type": "Feature",
      "properties": {
        "@id": "node/6498861385",
        "addr:housenumber": "364",
        "addr:street": "Pumapaccha",
        "internet_access": "wlan",
        "name": "Rumis Inn",
        "tourism": "hotel"
      },
      "geometry": {
        "type": "Point",
        "coordinates": [
          -71.9727832,
          -13.5162943
        ]
      },
      "id": "node/6498861385"
    },
    {
      "type": "Feature",
      "properties": {
        "@id": "node/6571714785",
        "name": "Hotel Casa Andino Premium Cusco",
        "tourism": "hotel"
      },
      "geometry": {
        "type": "Point",
        "coordinates": [
          -71.9742105,
          -13.5194569
        ]
      },
      "id": "node/6571714785"
    },
    {
      "type": "Feature",
      "properties": {
        "@id": "node/6653198386",
        "name": "Angie Inn hotel Maeva et Manu",
        "tourism": "hotel"
      },
      "geometry": {
        "type": "Point",
        "coordinates": [
          -72.5247397,
          -13.1548903
        ]
      },
      "id": "node/6653198386"
    },
    {
      "type": "Feature",
      "properties": {
        "@id": "node/6668066128",
        "brand": "Inkaterra",
        "internet_access": "wlan",
        "internet_access:fee": "no",
        "internet_access:ssid": "LA CASONA",
        "name": "Inkaterra La Casona",
        "phone": "+51 84 234010;+51 84 236748",
        "rooms": "11",
        "tourism": "hotel",
        "website": "https://www.inkaterra.com/inkaterra/inkaterra-la-casona/"
      },
      "geometry": {
        "type": "Point",
        "coordinates": [
          -71.9774848,
          -13.5152006
        ]
      },
      "id": "node/6668066128"
    },
    {
      "type": "Feature",
      "properties": {
        "@id": "node/6697163187",
        "name": "Awa Lodge",
        "tourism": "hotel"
      },
      "geometry": {
        "type": "Point",
        "coordinates": [
          -72.0296096,
          -13.3078798
        ]
      },
      "id": "node/6697163187"
    },
    {
      "type": "Feature",
      "properties": {
        "@id": "node/6710966673",
        "contact:facebook": "https://www.facebook.com/Bullhouselodging/",
        "name": "Bull House",
        "tourism": "hotel"
      },
      "geometry": {
        "type": "Point",
        "coordinates": [
          -72.1162296,
          -13.2995224
        ]
      },
      "id": "node/6710966673"
    },
    {
      "type": "Feature",
      "properties": {
        "@id": "node/6727926785",
        "name:it": "El MaPi",
        "tourism": "hotel"
      },
      "geometry": {
        "type": "Point",
        "coordinates": [
          -72.5248595,
          -13.1544553
        ]
      },
      "id": "node/6727926785"
    },
    {
      "type": "Feature",
      "properties": {
        "@id": "node/6767651585",
        "name": "Hostal Touristico",
        "name:de": "Hostal Turistico San Blas",
        "name:en": "Hostal Turistico San Blas",
        "name:es": "Hostal Turistico San Blas",
        "tourism": "hotel"
      },
      "geometry": {
        "type": "Point",
        "coordinates": [
          -71.975451,
          -13.5156059
        ]
      },
      "id": "node/6767651585"
    },
    {
      "type": "Feature",
      "properties": {
        "@id": "node/6781789321",
        "name": "Terra Andina Hotel",
        "tourism": "hotel"
      },
      "geometry": {
        "type": "Point",
        "coordinates": [
          -71.98364,
          -13.5195224
        ]
      },
      "id": "node/6781789321"
    },
    {
      "type": "Feature",
      "properties": {
        "@id": "node/6795588085",
        "name": "Kumpiro",
        "tourism": "hotel"
      },
      "geometry": {
        "type": "Point",
        "coordinates": [
          -72.6946523,
          -12.8700229
        ]
      },
      "id": "node/6795588085"
    },
    {
      "type": "Feature",
      "properties": {
        "@id": "node/6810395435",
        "name": "Hospedaje Criss",
        "tourism": "hotel"
      },
      "geometry": {
        "type": "Point",
        "coordinates": [
          -71.6768478,
          -13.6717109
        ]
      },
      "id": "node/6810395435"
    },
    {
      "type": "Feature",
      "properties": {
        "@id": "node/6981517904",
        "name": "Iorana Urubamba Hotel",
        "tourism": "hotel"
      },
      "geometry": {
        "type": "Point",
        "coordinates": [
          -72.125138,
          -13.3024306
        ]
      },
      "id": "node/6981517904"
    },
    {
      "type": "Feature",
      "properties": {
        "@id": "node/6988432730",
        "name": "Apart Hotel Las Margaritas",
        "tourism": "hotel"
      },
      "geometry": {
        "type": "Point",
        "coordinates": [
          -71.9272625,
          -13.5390714
        ]
      },
      "id": "node/6988432730"
    },
    {
      "type": "Feature",
      "properties": {
        "@id": "node/7048038286",
        "name": "El MaPi by Inkaterra",
        "tourism": "hotel"
      },
      "geometry": {
        "type": "Point",
        "coordinates": [
          -72.5246811,
          -13.1544259
        ]
      },
      "id": "node/7048038286"
    },
    {
      "type": "Feature",
      "properties": {
        "@id": "node/7057413185",
        "addr:housenumber": "250",
        "addr:postcode": "08002",
        "addr:street": "San Miguel",
        "email": "aliciarivascha@gmail.com",
        "internet_access": "wlan",
        "name": "Secret Garden $",
        "name:en": "Secret Garden",
        "name:es": "Secret Garden",
        "opening_hours": "24/7",
        "phone": "+51957441050",
        "tourism": "hotel",
        "website": "http://secretgarden.es"
      },
      "geometry": {
        "type": "Point",
        "coordinates": [
          -71.9755419,
          -13.5239375
        ]
      },
      "id": "node/7057413185"
    },
    {
      "type": "Feature",
      "properties": {
        "@id": "node/7103663730",
        "name": "Quechuas Lucmabamba Bio Domes",
        "phone": "+51 984 315 337",
        "tourism": "hotel",
        "website": "https://quechuasexpeditions.com/"
      },
      "geometry": {
        "type": "Point",
        "coordinates": [
          -72.6166195,
          -13.2115945
        ]
      },
      "id": "node/7103663730"
    },
    {
      "type": "Feature",
      "properties": {
        "@id": "node/7103671652",
        "name": "Collpapampa Lodges del Cielo - ITEP Travel",
        "phone": "+51 984 565 546",
        "tourism": "hotel",
        "website": "https://www.salkantaytrek.org/"
      },
      "geometry": {
        "type": "Point",
        "coordinates": [
          -72.6694456,
          -13.3192991
        ]
      },
      "id": "node/7103671652"
    },
    {
      "type": "Feature",
      "properties": {
        "@id": "node/7129029188",
        "addr:city": "Cusco",
        "addr:housenumber": "103",
        "addr:postcode": "08000",
        "addr:street": "Avenida Centenario",
        "email": "reservasinkahome@gmail.com",
        "internet_access": "wlan",
        "internet_access:fee": "yes",
        "name": "Inka Home Boutique Hotel",
        "reservation": "required",
        "rooms": "17",
        "shower": "hot_water",
        "smoking": "no",
        "tourism": "hotel",
        "wheelchair": "yes"
      },
      "geometry": {
        "type": "Point",
        "coordinates": [
          -71.9772744,
          -13.522802
        ]
      },
      "id": "node/7129029188"
    },
    {
      "type": "Feature",
      "properties": {
        "@id": "node/7160481785",
        "addr:street": "Laguna Kinsa Ccocha",
        "email": "mario-20120@hotmail.com",
        "name": "Hospedaje Agriturismo",
        "name:es": "Hospedaje Agriturismo Pisac Take Wasi",
        "opening_hours": "24/7",
        "operator": "Mario",
        "phone": "+51 935 409 249",
        "tourism": "hotel",
        "website": "http://www.agriturismoperu.com"
      },
      "geometry": {
        "type": "Point",
        "coordinates": [
          -71.8248196,
          -13.3537834
        ]
      },
      "id": "node/7160481785"
    },
    {
      "type": "Feature",
      "properties": {
        "@id": "node/7185249486",
        "name": "Hotel Residencial 2Star",
        "tourism": "hotel"
      },
      "geometry": {
        "type": "Point",
        "coordinates": [
          -71.2294756,
          -14.2744468
        ]
      },
      "id": "node/7185249486"
    },
    {
      "type": "Feature",
      "properties": {
        "@id": "node/8960603340",
        "tourism": "hotel"
      },
      "geometry": {
        "type": "Point",
        "coordinates": [
          -71.3594654,
          -12.8894872
        ]
      },
      "id": "node/8960603340"
    },
    {
      "type": "Feature",
      "properties": {
        "@id": "node/8972782840",
        "tourism": "hotel"
      },
      "geometry": {
        "type": "Point",
        "coordinates": [
          -72.1141063,
          -13.3095612
        ]
      },
      "id": "node/8972782840"
    },
    {
      "type": "Feature",
      "properties": {
        "@id": "node/8972789989",
        "name": "Los Geranios",
        "tourism": "hotel"
      },
      "geometry": {
        "type": "Point",
        "coordinates": [
          -72.1125721,
          -13.3102416
        ]
      },
      "id": "node/8972789989"
    },
    {
      "type": "Feature",
      "properties": {
        "@id": "node/8975224267",
        "name": "Manu's Hostal",
        "tourism": "hotel"
      },
      "geometry": {
        "type": "Point",
        "coordinates": [
          -72.1144815,
          -13.3084802
        ]
      },
      "id": "node/8975224267"
    },
    {
      "type": "Feature",
      "properties": {
        "@id": "node/8978516311",
        "name": "The Sacred Valley Lodge",
        "tourism": "hotel"
      },
      "geometry": {
        "type": "Point",
        "coordinates": [
          -72.0888982,
          -13.3168806
        ]
      },
      "id": "node/8978516311"
    },
    {
      "type": "Feature",
      "properties": {
        "@id": "node/8978559557",
        "name": "Sonesta Posadas del Inca",
        "tourism": "hotel"
      },
      "geometry": {
        "type": "Point",
        "coordinates": [
          -72.0883377,
          -13.3172593
        ]
      },
      "id": "node/8978559557"
    },
    {
      "type": "Feature",
      "properties": {
        "@id": "node/8984181152",
        "name": "Hospedaje Rey David",
        "tourism": "hotel"
      },
      "geometry": {
        "type": "Point",
        "coordinates": [
          -72.0659626,
          -13.3381091
        ]
      },
      "id": "node/8984181152"
    },
    {
      "type": "Feature",
      "properties": {
        "@id": "node/8986755864",
        "name": "Coca Runa Wasi",
        "tourism": "hotel"
      },
      "geometry": {
        "type": "Point",
        "coordinates": [
          -71.8546141,
          -13.4222052
        ]
      },
      "id": "node/8986755864"
    },
    {
      "type": "Feature",
      "properties": {
        "@id": "node/8988691590",
        "name": "Inca'j Samanan",
        "tourism": "hotel"
      },
      "geometry": {
        "type": "Point",
        "coordinates": [
          -72.0839088,
          -13.3217514
        ]
      },
      "id": "node/8988691590"
    },
    {
      "type": "Feature",
      "properties": {
        "@id": "node/8988968974",
        "name": "Hospedaje Dulce Amanecer",
        "tourism": "hotel"
      },
      "geometry": {
        "type": "Point",
        "coordinates": [
          -72.0792473,
          -13.324922
        ]
      },
      "id": "node/8988968974"
    },
    {
      "type": "Feature",
      "properties": {
        "@id": "node/9007003391",
        "name": "Hospedaje Kukuli",
        "tourism": "hotel"
      },
      "geometry": {
        "type": "Point",
        "coordinates": [
          -72.2628662,
          -13.2576868
        ]
      },
      "id": "node/9007003391"
    },
    {
      "type": "Feature",
      "properties": {
        "@id": "node/9025655192",
        "name": "Ava Spot",
        "tourism": "hotel"
      },
      "geometry": {
        "type": "Point",
        "coordinates": [
          -72.1382515,
          -13.292711
        ]
      },
      "id": "node/9025655192"
    },
    {
      "type": "Feature",
      "properties": {
        "@id": "node/9039056432",
        "tourism": "hotel"
      },
      "geometry": {
        "type": "Point",
        "coordinates": [
          -72.1407999,
          -13.4105389
        ]
      },
      "id": "node/9039056432"
    },
    {
      "type": "Feature",
      "properties": {
        "@id": "node/9039067579",
        "name": "Huaypo Lodge",
        "tourism": "hotel"
      },
      "geometry": {
        "type": "Point",
        "coordinates": [
          -72.1375049,
          -13.4140385
        ]
      },
      "id": "node/9039067579"
    },
    {
      "type": "Feature",
      "properties": {
        "@id": "node/9069132652",
        "name": "Hospedaje Amanecer 3 de Mayo",
        "tourism": "hotel"
      },
      "geometry": {
        "type": "Point",
        "coordinates": [
          -72.1085984,
          -13.3109536
        ]
      },
      "id": "node/9069132652"
    },
    {
      "type": "Feature",
      "properties": {
        "@id": "node/9074219587",
        "name": "Hostal Luna Azul",
        "tourism": "hotel"
      },
      "geometry": {
        "type": "Point",
        "coordinates": [
          -72.1131861,
          -13.3100704
        ]
      },
      "id": "node/9074219587"
    },
    {
      "type": "Feature",
      "properties": {
        "@id": "node/9074251995",
        "name": "Hospedaje Sumaq Dream",
        "tourism": "hotel"
      },
      "geometry": {
        "type": "Point",
        "coordinates": [
          -72.1147241,
          -13.3088495
        ]
      },
      "id": "node/9074251995"
    },
    {
      "type": "Feature",
      "properties": {
        "@id": "node/9074261569",
        "name": "Hostal Sr. De Torrechayoc",
        "tourism": "hotel"
      },
      "geometry": {
        "type": "Point",
        "coordinates": [
          -72.1147108,
          -13.3087402
        ]
      },
      "id": "node/9074261569"
    },
    {
      "type": "Feature",
      "properties": {
        "@id": "node/9074269505",
        "name": "Hostal Don Pepe",
        "tourism": "hotel"
      },
      "geometry": {
        "type": "Point",
        "coordinates": [
          -72.1188342,
          -13.3045006
        ]
      },
      "id": "node/9074269505"
    },
    {
      "type": "Feature",
      "properties": {
        "@id": "node/9084761832",
        "name": "Aninka Hotel",
        "tourism": "hotel"
      },
      "geometry": {
        "type": "Point",
        "coordinates": [
          -72.0791465,
          -13.3250902
        ]
      },
      "id": "node/9084761832"
    },
    {
      "type": "Feature",
      "properties": {
        "@id": "node/9095316559",
        "name": "Kutty Wasi",
        "tourism": "hotel"
      },
      "geometry": {
        "type": "Point",
        "coordinates": [
          -72.1167998,
          -13.3087711
        ]
      },
      "id": "node/9095316559"
    },
    {
      "type": "Feature",
      "properties": {
        "@id": "node/9098764417",
        "addr:housenumber": "200",
        "addr:street": "Calle Camino Real",
        "internet_access": "wlan",
        "name": "Hotel Camino Real",
        "phone": "+51984371101;+51953709898;+51 84 273814",
        "tourism": "hotel",
        "website": "http://www.hotelcaminorealcusco.com"
      },
      "geometry": {
        "type": "Point",
        "coordinates": [
          -71.9306823,
          -13.5287442
        ]
      },
      "id": "node/9098764417"
    },
    {
      "type": "Feature",
      "properties": {
        "@id": "node/9102485418",
        "internet_access": "wlan",
        "name": "Killas House",
        "tourism": "hotel"
      },
      "geometry": {
        "type": "Point",
        "coordinates": [
          -72.2649794,
          -13.2586468
        ]
      },
      "id": "node/9102485418"
    },
    {
      "type": "Feature",
      "properties": {
        "@id": "node/9118327309",
        "name": "Casa de la Mamá",
        "tourism": "hotel"
      },
      "geometry": {
        "type": "Point",
        "coordinates": [
          -72.5337219,
          -12.9974332
        ]
      },
      "id": "node/9118327309"
    },
    {
      "type": "Feature",
      "properties": {
        "@id": "node/9118339599",
        "name": "Los Álamos",
        "phone": "+51961000991",
        "tourism": "hotel"
      },
      "geometry": {
        "type": "Point",
        "coordinates": [
          -72.6936062,
          -12.8626219
        ]
      },
      "id": "node/9118339599"
    },
    {
      "type": "Feature",
      "properties": {
        "@id": "node/9118342790",
        "name": "Hotel Iguazú",
        "tourism": "hotel"
      },
      "geometry": {
        "type": "Point",
        "coordinates": [
          -72.690949,
          -12.8811344
        ]
      },
      "id": "node/9118342790"
    },
    {
      "type": "Feature",
      "properties": {
        "@id": "node/9118342801",
        "tourism": "hotel"
      },
      "geometry": {
        "type": "Point",
        "coordinates": [
          -72.2340741,
          -13.2648399
        ]
      },
      "id": "node/9118342801"
    },
    {
      "type": "Feature",
      "properties": {
        "@id": "node/9121579591",
        "name": "Bunker Hostal",
        "tourism": "hotel"
      },
      "geometry": {
        "type": "Point",
        "coordinates": [
          -71.9676874,
          -13.5300809
        ]
      },
      "id": "node/9121579591"
    },
    {
      "type": "Feature",
      "properties": {
        "@id": "node/9133818528",
        "brand": "Machu Picchu EcoLodge & Restaurant",
        "internet_access": "terminal",
        "name": "Machu Picchu EcoLodge & Restaurant",
        "opening_hours": "24/7",
        "operator": "Elio Lasteros",
        "phone": "+51989232008",
        "rooms": "6",
        "tourism": "hotel",
        "website": "https://www.machupicchuecolodge.com"
      },
      "geometry": {
        "type": "Point",
        "coordinates": [
          -72.5881678,
          -13.185491
        ]
      },
      "id": "node/9133818528"
    },
    {
      "type": "Feature",
      "properties": {
        "@id": "node/9138082163",
        "bar": "yes",
        "internet_access": "yes",
        "internet_access:fee": "customers",
        "name": "Inkaterra Hacienda Urubamba",
        "tourism": "hotel"
      },
      "geometry": {
        "type": "Point",
        "coordinates": [
          -72.0556949,
          -13.322187
        ]
      },
      "id": "node/9138082163"
    },
    {
      "type": "Feature",
      "properties": {
        "@id": "node/9149873956",
        "name": "Hospedaje Kennedy",
        "tourism": "hotel"
      },
      "geometry": {
        "type": "Point",
        "coordinates": [
          -72.1132041,
          -13.3020596
        ]
      },
      "id": "node/9149873956"
    },
    {
      "type": "Feature",
      "properties": {
        "@id": "node/9159555241",
        "name": "Madre Tierra Resort Sacred Valley",
        "tourism": "hotel"
      },
      "geometry": {
        "type": "Point",
        "coordinates": [
          -72.0407843,
          -13.3252752
        ]
      },
      "id": "node/9159555241"
    },
    {
      "type": "Feature",
      "properties": {
        "@id": "node/9208855017",
        "addr:housenumber": "C-2",
        "addr:street": "Avenida Costanera",
        "internet_access": "wlan",
        "name": "Hospedaje Don Pedrito",
        "tourism": "hotel"
      },
      "geometry": {
        "type": "Point",
        "coordinates": [
          -71.9644593,
          -13.5342119
        ]
      },
      "id": "node/9208855017"
    },
    {
      "type": "Feature",
      "properties": {
        "@id": "node/9230317931",
        "name": "Hospedaje Piscis",
        "tourism": "hotel"
      },
      "geometry": {
        "type": "Point",
        "coordinates": [
          -71.9849749,
          -13.5268755
        ]
      },
      "id": "node/9230317931"
    },
    {
      "type": "Feature",
      "properties": {
        "@id": "node/9230380337",
        "name": "Hotel Cusi Boutique",
        "tourism": "hotel"
      },
      "geometry": {
        "type": "Point",
        "coordinates": [
          -72.0648935,
          -13.374325
        ]
      },
      "id": "node/9230380337"
    },
    {
      "type": "Feature",
      "properties": {
        "@id": "node/9230384753",
        "name": "Tus Encantos",
        "tourism": "hotel"
      },
      "geometry": {
        "type": "Point",
        "coordinates": [
          -71.9780897,
          -13.5253086
        ]
      },
      "id": "node/9230384753"
    },
    {
      "type": "Feature",
      "properties": {
        "@id": "node/9230397298",
        "tourism": "hotel"
      },
      "geometry": {
        "type": "Point",
        "coordinates": [
          -72.0078759,
          -13.5074109
        ]
      },
      "id": "node/9230397298"
    },
    {
      "type": "Feature",
      "properties": {
        "@id": "node/9276214925",
        "tourism": "hotel"
      },
      "geometry": {
        "type": "Point",
        "coordinates": [
          -72.1155844,
          -13.3053409
        ]
      },
      "id": "node/9276214925"
    },
    {
      "type": "Feature",
      "properties": {
        "@id": "node/9278423798",
        "name": "Uru Tinkuy",
        "tourism": "hotel"
      },
      "geometry": {
        "type": "Point",
        "coordinates": [
          -72.1244121,
          -13.3023967
        ]
      },
      "id": "node/9278423798"
    },
    {
      "type": "Feature",
      "properties": {
        "@id": "node/9278874589",
        "tourism": "hotel",
        "wheelchair": "no"
      },
      "geometry": {
        "type": "Point",
        "coordinates": [
          -72.2119049,
          -13.2748205
        ]
      },
      "id": "node/9278874589"
    },
    {
      "type": "Feature",
      "properties": {
        "@id": "node/9291005517",
        "name:en": "Tumy house B&B",
        "phone": "+51 974 337 048",
        "tourism": "hotel"
      },
      "geometry": {
        "type": "Point",
        "coordinates": [
          -72.2624983,
          -13.2600183
        ]
      },
      "id": "node/9291005517"
    },
    {
      "type": "Feature",
      "properties": {
        "@id": "node/9300889440",
        "name": "Casa Redonda",
        "tourism": "hotel"
      },
      "geometry": {
        "type": "Point",
        "coordinates": [
          -72.1856337,
          -13.2769633
        ]
      },
      "id": "node/9300889440"
    },
    {
      "type": "Feature",
      "properties": {
        "@id": "node/9311190094",
        "name": "Hotel Prisma",
        "tourism": "hotel"
      },
      "geometry": {
        "type": "Point",
        "coordinates": [
          -71.9783793,
          -13.5219614
        ]
      },
      "id": "node/9311190094"
    },
    {
      "type": "Feature",
      "properties": {
        "@id": "node/9312871380",
        "name": "Inti Ñan",
        "tourism": "hotel"
      },
      "geometry": {
        "type": "Point",
        "coordinates": [
          -72.1337301,
          -13.2949017
        ]
      },
      "id": "node/9312871380"
    },
    {
      "type": "Feature",
      "properties": {
        "@id": "node/9314307836",
        "name": "Hotel Taipicala",
        "tourism": "hotel"
      },
      "geometry": {
        "type": "Point",
        "coordinates": [
          -72.1356261,
          -13.3002146
        ]
      },
      "id": "node/9314307836"
    },
    {
      "type": "Feature",
      "properties": {
        "@id": "node/9315558313",
        "name": "Hotel Feimar",
        "tourism": "hotel"
      },
      "geometry": {
        "type": "Point",
        "coordinates": [
          -71.9497033,
          -13.5272162
        ]
      },
      "id": "node/9315558313"
    },
    {
      "type": "Feature",
      "properties": {
        "@id": "node/9319184241",
        "name": "Casa Aguilar",
        "tourism": "hotel"
      },
      "geometry": {
        "type": "Point",
        "coordinates": [
          -72.1475064,
          -13.2884716
        ]
      },
      "id": "node/9319184241"
    },
    {
      "type": "Feature",
      "properties": {
        "@id": "node/9322204812",
        "addr:housenumber": "600",
        "addr:street": "Jirón Zavala",
        "name": "Venka",
        "tourism": "hotel"
      },
      "geometry": {
        "type": "Point",
        "coordinates": [
          -72.1165335,
          -13.3030551
        ]
      },
      "id": "node/9322204812"
    },
    {
      "type": "Feature",
      "properties": {
        "@id": "node/9322205906",
        "name": "Wayqey Lodge",
        "tourism": "hotel"
      },
      "geometry": {
        "type": "Point",
        "coordinates": [
          -72.1212271,
          -13.298249
        ]
      },
      "id": "node/9322205906"
    },
    {
      "type": "Feature",
      "properties": {
        "@id": "node/9322208260",
        "name": "Tambo del Valle",
        "tourism": "hotel"
      },
      "geometry": {
        "type": "Point",
        "coordinates": [
          -72.1183478,
          -13.3026725
        ]
      },
      "id": "node/9322208260"
    },
    {
      "type": "Feature",
      "properties": {
        "@id": "node/9322240343",
        "addr:housenumber": "438",
        "addr:street": "Jirón Zavala",
        "name": "La Florida",
        "tourism": "hotel"
      },
      "geometry": {
        "type": "Point",
        "coordinates": [
          -72.1155588,
          -13.3034173
        ]
      },
      "id": "node/9322240343"
    },
    {
      "type": "Feature",
      "properties": {
        "@id": "node/9322289492",
        "name": "Hostal Urubamba",
        "tourism": "hotel"
      },
      "geometry": {
        "type": "Point",
        "coordinates": [
          -72.1150167,
          -13.3052884
        ]
      },
      "id": "node/9322289492"
    },
    {
      "type": "Feature",
      "properties": {
        "@id": "node/9325184165",
        "name": "El Peregrino",
        "tourism": "hotel"
      },
      "geometry": {
        "type": "Point",
        "coordinates": [
          -71.9795397,
          -13.5171411
        ]
      },
      "id": "node/9325184165"
    },
    {
      "type": "Feature",
      "properties": {
        "@id": "node/9325192287",
        "name": "Casa Andina",
        "stars": "3",
        "tourism": "hotel"
      },
      "geometry": {
        "type": "Point",
        "coordinates": [
          -71.9774368,
          -13.5170851
        ]
      },
      "id": "node/9325192287"
    },
    {
      "type": "Feature",
      "properties": {
        "@id": "node/9330503962",
        "name": "Casa Andina",
        "tourism": "hotel"
      },
      "geometry": {
        "type": "Point",
        "coordinates": [
          -72.1871934,
          -13.2717424
        ]
      },
      "id": "node/9330503962"
    },
    {
      "type": "Feature",
      "properties": {
        "@id": "node/9356562737",
        "name": "Andes de Urubamba",
        "tourism": "hotel"
      },
      "geometry": {
        "type": "Point",
        "coordinates": [
          -72.116466,
          -13.3043546
        ]
      },
      "id": "node/9356562737"
    },
    {
      "type": "Feature",
      "properties": {
        "@id": "node/9386209100",
        "name": "Casa de La Abuela I",
        "tourism": "hotel"
      },
      "geometry": {
        "type": "Point",
        "coordinates": [
          -72.0787385,
          -13.325683
        ]
      },
      "id": "node/9386209100"
    },
    {
      "type": "Feature",
      "properties": {
        "@id": "node/9389567353",
        "name": "Yucay Plaza Inn",
        "tourism": "hotel"
      },
      "geometry": {
        "type": "Point",
        "coordinates": [
          -72.0882961,
          -13.3186968
        ]
      },
      "id": "node/9389567353"
    },
    {
      "type": "Feature",
      "properties": {
        "@id": "node/9389673087",
        "tourism": "hotel"
      },
      "geometry": {
        "type": "Point",
        "coordinates": [
          -72.1114981,
          -13.30974
        ]
      },
      "id": "node/9389673087"
    },
    {
      "type": "Feature",
      "properties": {
        "@id": "node/9395630186",
        "name": "Hostal Santa Rosa",
        "tourism": "hotel"
      },
      "geometry": {
        "type": "Point",
        "coordinates": [
          -71.974492,
          -13.522351
        ]
      },
      "id": "node/9395630186"
    },
    {
      "type": "Feature",
      "properties": {
        "@id": "node/9401000106",
        "name": "Lucero",
        "tourism": "hotel"
      },
      "geometry": {
        "type": "Point",
        "coordinates": [
          -72.1372177,
          -13.2935915
        ]
      },
      "id": "node/9401000106"
    },
    {
      "type": "Feature",
      "properties": {
        "@id": "node/9414586714",
        "name": "Antigua Casona San Blas",
        "tourism": "hotel"
      },
      "geometry": {
        "type": "Point",
        "coordinates": [
          -71.9737536,
          -13.51599
        ]
      },
      "id": "node/9414586714"
    },
    {
      "type": "Feature",
      "properties": {
        "@id": "node/9421740386",
        "name": "Tika Wasi",
        "tourism": "hotel"
      },
      "geometry": {
        "type": "Point",
        "coordinates": [
          -72.156591,
          -13.3339096
        ]
      },
      "id": "node/9421740386"
    },
    {
      "type": "Feature",
      "properties": {
        "@id": "node/9430449017",
        "name": "La Casa Blanca",
        "tourism": "hotel"
      },
      "geometry": {
        "type": "Point",
        "coordinates": [
          -71.4312741,
          -14.2174849
        ]
      },
      "id": "node/9430449017"
    },
    {
      "type": "Feature",
      "properties": {
        "@id": "node/9448662152",
        "addr:housenumber": "105",
        "addr:street": "Calle Los Arenales",
        "name": "Eco Hotel Quint",
        "tourism": "hotel"
      },
      "geometry": {
        "type": "Point",
        "coordinates": [
          -72.1221289,
          -13.3001384
        ]
      },
      "id": "node/9448662152"
    },
    {
      "type": "Feature",
      "properties": {
        "@id": "node/9448662155",
        "name": "Kinsapacha Eco Lodge",
        "tourism": "hotel"
      },
      "geometry": {
        "type": "Point",
        "coordinates": [
          -72.1259659,
          -13.2982031
        ]
      },
      "id": "node/9448662155"
    },
    {
      "type": "Feature",
      "properties": {
        "@id": "node/9448662156",
        "name": "Allin Illary Eco Hospedaje",
        "tourism": "hotel"
      },
      "geometry": {
        "type": "Point",
        "coordinates": [
          -72.126651,
          -13.2974837
        ]
      },
      "id": "node/9448662156"
    },
    {
      "type": "Feature",
      "properties": {
        "@id": "node/9451183839",
        "name": "Casa Saywa",
        "tourism": "hotel"
      },
      "geometry": {
        "type": "Point",
        "coordinates": [
          -72.1055636,
          -13.3019368
        ]
      },
      "id": "node/9451183839"
    },
    {
      "type": "Feature",
      "properties": {
        "@id": "node/9451184434",
        "name": "Villa Mercedes",
        "tourism": "hotel"
      },
      "geometry": {
        "type": "Point",
        "coordinates": [
          -72.1071835,
          -13.3101621
        ]
      },
      "id": "node/9451184434"
    },
    {
      "type": "Feature",
      "properties": {
        "@id": "node/9451202825",
        "name": "Kantu Wasi",
        "tourism": "hotel"
      },
      "geometry": {
        "type": "Point",
        "coordinates": [
          -72.104144,
          -13.3091404
        ]
      },
      "id": "node/9451202825"
    },
    {
      "type": "Feature",
      "properties": {
        "@id": "node/9495662835",
        "name": "Promesas Hostal",
        "tourism": "hotel"
      },
      "geometry": {
        "type": "Point",
        "coordinates": [
          -72.1191698,
          -13.3052642
        ]
      },
      "id": "node/9495662835"
    },
    {
      "type": "Feature",
      "properties": {
        "@id": "node/9497177574",
        "name": "Pisonay Pueblo",
        "tourism": "hotel",
        "website": "http://www.pisonaypueblo.com/"
      },
      "geometry": {
        "type": "Point",
        "coordinates": [
          -72.1318907,
          -13.2969325
        ]
      },
      "id": "node/9497177574"
    },
    {
      "type": "Feature",
      "properties": {
        "@id": "node/9508980277",
        "name": "Amaru",
        "tourism": "hotel"
      },
      "geometry": {
        "type": "Point",
        "coordinates": [
          -72.1149184,
          -13.3019891
        ]
      },
      "id": "node/9508980277"
    },
    {
      "type": "Feature",
      "properties": {
        "@id": "node/9609163513",
        "name": "Hotel Carmen",
        "tourism": "hotel"
      },
      "geometry": {
        "type": "Point",
        "coordinates": [
          -71.9830763,
          -13.5164342
        ]
      },
      "id": "node/9609163513"
    },
    {
      "type": "Feature",
      "properties": {
        "@id": "node/9636787086",
        "internet_access": "wlan",
        "internet_access:fee": "customers",
        "name": "Munay Sonqo Retreat Center",
        "phone": "+51984900927",
        "tourism": "hotel",
        "website": "http://munaysonqo.com/"
      },
      "geometry": {
        "type": "Point",
        "coordinates": [
          -72.011876,
          -13.3051584
        ]
      },
      "id": "node/9636787086"
    },
    {
      "type": "Feature",
      "properties": {
        "@id": "node/9644482923",
        "addr:housenumber": "341",
        "addr:street": "Avenida El Sol",
        "email": "nfo@tampuhotel.com",
        "name": "Tampu Hotel Boutique",
        "phone": "+51 84 226545",
        "tourism": "hotel",
        "website": "https://tampuhotel.com"
      },
      "geometry": {
        "type": "Point",
        "coordinates": [
          -71.9771366,
          -13.5196029
        ]
      },
      "id": "node/9644482923"
    },
    {
      "type": "Feature",
      "properties": {
        "@id": "node/9646026722",
        "name": "The Green House",
        "tourism": "hotel"
      },
      "geometry": {
        "type": "Point",
        "coordinates": [
          -72.0260952,
          -13.3091854
        ]
      },
      "id": "node/9646026722"
    },
    {
      "type": "Feature",
      "properties": {
        "@id": "node/9646055846",
        "name": "Casita Huaran",
        "tourism": "hotel"
      },
      "geometry": {
        "type": "Point",
        "coordinates": [
          -72.032285,
          -13.3053525
        ]
      },
      "id": "node/9646055846"
    },
    {
      "type": "Feature",
      "properties": {
        "@id": "node/9647353840",
        "name": "Tayta Wasi",
        "tourism": "hotel"
      },
      "geometry": {
        "type": "Point",
        "coordinates": [
          -72.0156975,
          -13.3090375
        ]
      },
      "id": "node/9647353840"
    },
    {
      "type": "Feature",
      "properties": {
        "@id": "node/9647382330",
        "name": "Samana Cottages",
        "tourism": "hotel"
      },
      "geometry": {
        "type": "Point",
        "coordinates": [
          -72.0153721,
          -13.3085128
        ]
      },
      "id": "node/9647382330"
    },
    {
      "type": "Feature",
      "properties": {
        "@id": "node/9701857610",
        "name": "Qoyorrity Wasi",
        "tourism": "hotel"
      },
      "geometry": {
        "type": "Point",
        "coordinates": [
          -71.9608149,
          -13.3219511
        ]
      },
      "id": "node/9701857610"
    },
    {
      "type": "Feature",
      "properties": {
        "@id": "node/9701880274",
        "name": "Bellavista",
        "tourism": "hotel"
      },
      "geometry": {
        "type": "Point",
        "coordinates": [
          -72.0344309,
          -13.3198071
        ]
      },
      "id": "node/9701880274"
    },
    {
      "type": "Feature",
      "properties": {
        "@id": "node/9701881840",
        "name": "Hospedaje San Martin",
        "tourism": "hotel"
      },
      "geometry": {
        "type": "Point",
        "coordinates": [
          -71.955253,
          -13.3213396
        ]
      },
      "id": "node/9701881840"
    },
    {
      "type": "Feature",
      "properties": {
        "@id": "node/9701894078",
        "addr:housenumber": "327",
        "addr:street": "Avenida Espinar",
        "name": "Hotel Plaza Calca",
        "stars": "3",
        "tourism": "hotel"
      },
      "geometry": {
        "type": "Point",
        "coordinates": [
          -71.9560715,
          -13.3211445
        ]
      },
      "id": "node/9701894078"
    },
    {
      "type": "Feature",
      "properties": {
        "@id": "node/9739931611",
        "name": "Las Qolqas Eco Resort",
        "tourism": "hotel"
      },
      "geometry": {
        "type": "Point",
        "coordinates": [
          -72.2492136,
          -13.2484077
        ]
      },
      "id": "node/9739931611"
    },
    {
      "type": "Feature",
      "properties": {
        "@id": "node/9747621618",
        "name": "El Sol de Oro",
        "tourism": "hotel"
      },
      "geometry": {
        "type": "Point",
        "coordinates": [
          -72.2776915,
          -13.2567918
        ]
      },
      "id": "node/9747621618"
    },
    {
      "type": "Feature",
      "properties": {
        "@id": "node/9754807309",
        "tourism": "hotel"
      },
      "geometry": {
        "type": "Point",
        "coordinates": [
          -72.230838,
          -13.2658224
        ]
      },
      "id": "node/9754807309"
    },
    {
      "type": "Feature",
      "properties": {
        "@id": "node/9754812043",
        "tourism": "hotel"
      },
      "geometry": {
        "type": "Point",
        "coordinates": [
          -72.2744458,
          -13.2603007
        ]
      },
      "id": "node/9754812043"
    },
    {
      "type": "Feature",
      "properties": {
        "@id": "node/9758691273",
        "name": "Hhospedaje Imperial",
        "tourism": "hotel"
      },
      "geometry": {
        "type": "Point",
        "coordinates": [
          -71.2296348,
          -14.2743788
        ]
      },
      "id": "node/9758691273"
    },
    {
      "type": "Feature",
      "properties": {
        "@id": "node/9760727317",
        "internet_access": "wlan",
        "name": "Salkantay Hostel Lucmabamba Lia B&B by Fredy & Esther",
        "phone": "+51984001114",
        "tourism": "hotel"
      },
      "geometry": {
        "type": "Point",
        "coordinates": [
          -72.6167823,
          -13.2116897
        ]
      },
      "id": "node/9760727317"
    },
    {
      "type": "Feature",
      "properties": {
        "@id": "node/9805207117",
        "name:en": "Hospedaje Puma",
        "tourism": "hotel"
      },
      "geometry": {
        "type": "Point",
        "coordinates": [
          -72.5940077,
          -13.1288574
        ]
      },
      "id": "node/9805207117"
    },
    {
      "type": "Feature",
      "properties": {
        "@id": "node/9805401434",
        "name": "Andino Hotel Machu Picchu",
        "tourism": "hotel"
      },
      "geometry": {
        "type": "Point",
        "coordinates": [
          -72.5231004,
          -13.1563064
        ]
      },
      "id": "node/9805401434"
    },
    {
      "type": "Feature",
      "properties": {
        "@id": "node/9807130418",
        "name:en": "Las Bromelias Hospedaje",
        "tourism": "hotel"
      },
      "geometry": {
        "type": "Point",
        "coordinates": [
          -72.5256732,
          -13.1541278
        ]
      },
      "id": "node/9807130418"
    },
    {
      "type": "Feature",
      "properties": {
        "@id": "node/9812473372",
        "addr:city": "Cusco",
        "addr:district": "Santiago",
        "addr:housenumber": "1265",
        "addr:postcode": "08000",
        "addr:state": "Cusco",
        "addr:street": "Calle Los Angeles",
        "brand": "Hotel Las Quenas",
        "email": "reservas@lasquenas.com",
        "internet_access": "wlan",
        "internet_access:fee": "customers",
        "name": "Hotel Las Quenas",
        "phone": "+51 916620200",
        "reservation": "recommended",
        "rooms": "20",
        "stars": "3",
        "tourism": "hotel",
        "website": "https://www.lasquenas.com/"
      },
      "geometry": {
        "type": "Point",
        "coordinates": [
          -71.9848426,
          -13.5262821
        ]
      },
      "id": "node/9812473372"
    },
    {
      "type": "Feature",
      "properties": {
        "@id": "node/9812658518",
        "name:en": "Hospedaje Encanto",
        "tourism": "hotel"
      },
      "geometry": {
        "type": "Point",
        "coordinates": [
          -72.6948708,
          -12.8695383
        ]
      },
      "id": "node/9812658518"
    },
    {
      "type": "Feature",
      "properties": {
        "@id": "node/9819010819",
        "name": "Waman Hotel",
        "tourism": "hotel"
      },
      "geometry": {
        "type": "Point",
        "coordinates": [
          -72.5236219,
          -13.1540613
        ]
      },
      "id": "node/9819010819"
    },
    {
      "type": "Feature",
      "properties": {
        "@id": "node/9840030311",
        "name": "Caviedes",
        "tourism": "hotel"
      },
      "geometry": {
        "type": "Point",
        "coordinates": [
          -72.050253,
          -13.3928151
        ]
      },
      "id": "node/9840030311"
    },
    {
      "type": "Feature",
      "properties": {
        "@id": "node/9840111717",
        "name": "La Ñusta",
        "tourism": "hotel"
      },
      "geometry": {
        "type": "Point",
        "coordinates": [
          -72.0512202,
          -13.3948328
        ]
      },
      "id": "node/9840111717"
    },
    {
      "type": "Feature",
      "properties": {
        "@id": "node/9850729017",
        "internet_access": "wlan",
        "name": "Qoricancha",
        "tourism": "hotel"
      },
      "geometry": {
        "type": "Point",
        "coordinates": [
          -71.9760279,
          -13.5218939
        ]
      },
      "id": "node/9850729017"
    },
    {
      "type": "Feature",
      "properties": {
        "@id": "node/9851915617",
        "addr:street": "Meloq",
        "internet_access": "wlan",
        "name": "Pampawasi",
        "phone": "+51 932240224;+51 984717800",
        "tourism": "hotel"
      },
      "geometry": {
        "type": "Point",
        "coordinates": [
          -71.9835885,
          -13.5156989
        ]
      },
      "id": "node/9851915617"
    },
    {
      "type": "Feature",
      "properties": {
        "@id": "node/9851915718",
        "addr:street": "Carmenqa",
        "name": "Santana",
        "tourism": "hotel"
      },
      "geometry": {
        "type": "Point",
        "coordinates": [
          -71.9859937,
          -13.5136214
        ]
      },
      "id": "node/9851915718"
    },
    {
      "type": "Feature",
      "properties": {
        "@id": "node/9854379349",
        "addr:housenumber": "895",
        "addr:street": "Avenida Grau",
        "name": "Hotel Mantas Cusco",
        "tourism": "hotel"
      },
      "geometry": {
        "type": "Point",
        "coordinates": [
          -71.978137,
          -13.5256508
        ]
      },
      "id": "node/9854379349"
    },
    {
      "type": "Feature",
      "properties": {
        "@id": "node/9869336017",
        "internet_access": "wlan",
        "name": "Valle Dorado",
        "tourism": "hotel"
      },
      "geometry": {
        "type": "Point",
        "coordinates": [
          -72.5232877,
          -13.1534601
        ]
      },
      "id": "node/9869336017"
    },
    {
      "type": "Feature",
      "properties": {
        "@id": "node/9894165305",
        "name": "Terra Viva",
        "tourism": "hotel"
      },
      "geometry": {
        "type": "Point",
        "coordinates": [
          -72.180638,
          -13.2806677
        ]
      },
      "id": "node/9894165305"
    },
    {
      "type": "Feature",
      "properties": {
        "@id": "node/9910639045",
        "name": "Hierba Buena",
        "tourism": "hotel"
      },
      "geometry": {
        "type": "Point",
        "coordinates": [
          -71.8494346,
          -13.4221775
        ]
      },
      "id": "node/9910639045"
    },
    {
      "type": "Feature",
      "properties": {
        "@id": "node/9910652474",
        "name": "Cata Hospedaje",
        "tourism": "hotel"
      },
      "geometry": {
        "type": "Point",
        "coordinates": [
          -71.8502123,
          -13.4229462
        ]
      },
      "id": "node/9910652474"
    },
    {
      "type": "Feature",
      "properties": {
        "@id": "node/9910655187",
        "name": "La Posada de Francisco",
        "tourism": "hotel"
      },
      "geometry": {
        "type": "Point",
        "coordinates": [
          -71.8489204,
          -13.4221311
        ]
      },
      "id": "node/9910655187"
    },
    {
      "type": "Feature",
      "properties": {
        "@id": "node/9910660841",
        "addr:housenumber": "132",
        "addr:street": "Avenida Amazonas",
        "name": "La Casona",
        "tourism": "hotel"
      },
      "geometry": {
        "type": "Point",
        "coordinates": [
          -71.8512258,
          -13.4229659
        ]
      },
      "id": "node/9910660841"
    },
    {
      "type": "Feature",
      "properties": {
        "@id": "node/9910672479",
        "name": "Casona del Carmen",
        "tourism": "hotel"
      },
      "geometry": {
        "type": "Point",
        "coordinates": [
          -71.8509149,
          -13.4220123
        ]
      },
      "id": "node/9910672479"
    },
    {
      "type": "Feature",
      "properties": {
        "@id": "node/9910674223",
        "name": "Casona Apu Linli",
        "tourism": "hotel"
      },
      "geometry": {
        "type": "Point",
        "coordinates": [
          -71.8521754,
          -13.4226483
        ]
      },
      "id": "node/9910674223"
    },
    {
      "type": "Feature",
      "properties": {
        "@id": "node/9912821317",
        "name:en": "Las Bromelias Hospedaje",
        "tourism": "hotel"
      },
      "geometry": {
        "type": "Point",
        "coordinates": [
          -72.5256744,
          -13.1541098
        ]
      },
      "id": "node/9912821317"
    },
    {
      "type": "Feature",
      "properties": {
        "@id": "node/9927183022",
        "name": "Sumaq Dream",
        "phone": "+51963288629",
        "tourism": "hotel"
      },
      "geometry": {
        "type": "Point",
        "coordinates": [
          -72.1147528,
          -13.3088422
        ]
      },
      "id": "node/9927183022"
    },
    {
      "type": "Feature",
      "properties": {
        "@id": "node/9950849722",
        "name:en": "Llactapata Eco Lodge",
        "tourism": "hotel"
      },
      "geometry": {
        "type": "Point",
        "coordinates": [
          -72.58826,
          -13.1855055
        ]
      },
      "id": "node/9950849722"
    },
    {
      "type": "Feature",
      "properties": {
        "@id": "node/10000110661",
        "name": "Casa Tía María",
        "tourism": "hotel"
      },
      "geometry": {
        "type": "Point",
        "coordinates": [
          -72.0881603,
          -13.3173892
        ]
      },
      "id": "node/10000110661"
    },
    {
      "type": "Feature",
      "properties": {
        "@id": "node/10010202417",
        "addr:postcode": "08676",
        "addr:street": "Los Alamos",
        "contact:facebook": "sungatebyb",
        "contact:instagram": "sungatebyb",
        "internet_access": "wlan",
        "name": "Sun Gate B&B",
        "phone": "+51 925 467 617",
        "tourism": "hotel",
        "website": "https://www.sungatebb.com/"
      },
      "geometry": {
        "type": "Point",
        "coordinates": [
          -72.2686466,
          -13.258185
        ]
      },
      "id": "node/10010202417"
    },
    {
      "type": "Feature",
      "properties": {
        "@id": "node/10019714919",
        "internet_access": "wlan",
        "name": "Hostal Miraflores",
        "tourism": "hotel"
      },
      "geometry": {
        "type": "Point",
        "coordinates": [
          -72.0859101,
          -14.4549332
        ]
      },
      "id": "node/10019714919"
    },
    {
      "type": "Feature",
      "properties": {
        "@id": "node/10024859317",
        "internet_access": "wlan",
        "name": "Hotel Willcamayu",
        "tourism": "hotel"
      },
      "geometry": {
        "type": "Point",
        "coordinates": [
          -71.8487409,
          -13.4220529
        ]
      },
      "id": "node/10024859317"
    },
    {
      "type": "Feature",
      "properties": {
        "@id": "node/10078480501",
        "name": "Intiterra Apart Hotel",
        "tourism": "hotel",
        "website": "http://www.intiterra.com/"
      },
      "geometry": {
        "type": "Point",
        "coordinates": [
          -72.1727696,
          -13.2751948
        ]
      },
      "id": "node/10078480501"
    },
    {
      "type": "Feature",
      "properties": {
        "@id": "node/10078488035",
        "name": "Casa Yanahuara",
        "tourism": "hotel"
      },
      "geometry": {
        "type": "Point",
        "coordinates": [
          -72.1756961,
          -13.2764047
        ]
      },
      "id": "node/10078488035"
    },
    {
      "type": "Feature",
      "properties": {
        "@id": "node/10102377717",
        "addr:housenumber": "116",
        "addr:street": "Tandapata",
        "alt_name": "Hospedaje Casona, Las Pleiades",
        "internet_access": "wlan",
        "name": "Home Garden Casona",
        "tourism": "hotel"
      },
      "geometry": {
        "type": "Point",
        "coordinates": [
          -71.9743261,
          -13.5144812
        ]
      },
      "id": "node/10102377717"
    },
    {
      "type": "Feature",
      "properties": {
        "@id": "node/10131004391",
        "name": "House Hotel",
        "tourism": "hotel"
      },
      "geometry": {
        "type": "Point",
        "coordinates": [
          -71.9536035,
          -13.3227778
        ]
      },
      "id": "node/10131004391"
    },
    {
      "type": "Feature",
      "properties": {
        "@id": "node/10232005433",
        "name": "Inka King",
        "tourism": "hotel"
      },
      "geometry": {
        "type": "Point",
        "coordinates": [
          -72.2631513,
          -13.2572096
        ]
      },
      "id": "node/10232005433"
    },
    {
      "type": "Feature",
      "properties": {
        "@id": "node/10233337817",
        "name": "Huaca House",
        "tourism": "hotel"
      },
      "geometry": {
        "type": "Point",
        "coordinates": [
          -71.9755115,
          -13.5158984
        ]
      },
      "id": "node/10233337817"
    },
    {
      "type": "Feature",
      "properties": {
        "@id": "node/10241251375",
        "name": "Inti Punku",
        "tourism": "hotel"
      },
      "geometry": {
        "type": "Point",
        "coordinates": [
          -72.1803716,
          -13.2655899
        ]
      },
      "id": "node/10241251375"
    },
    {
      "type": "Feature",
      "properties": {
        "@id": "node/10241251377",
        "name": "Pachamama Wasi",
        "tourism": "hotel"
      },
      "geometry": {
        "type": "Point",
        "coordinates": [
          -72.182685,
          -13.2669161
        ]
      },
      "id": "node/10241251377"
    },
    {
      "type": "Feature",
      "properties": {
        "@id": "node/10242460588",
        "name": "Hospedaje Vallecito",
        "tourism": "hotel"
      },
      "geometry": {
        "type": "Point",
        "coordinates": [
          -72.0749494,
          -13.3626896
        ]
      },
      "id": "node/10242460588"
    },
    {
      "type": "Feature",
      "properties": {
        "@id": "node/10242462945",
        "name": "Hospedaje El Balcón de Ttito",
        "tourism": "hotel"
      },
      "geometry": {
        "type": "Point",
        "coordinates": [
          -72.0756435,
          -13.3630925
        ]
      },
      "id": "node/10242462945"
    },
    {
      "type": "Feature",
      "properties": {
        "@id": "node/10242479007",
        "name": "Hospedaje Estrella",
        "phone": "+51910777187",
        "tourism": "hotel"
      },
      "geometry": {
        "type": "Point",
        "coordinates": [
          -72.0759992,
          -13.3656507
        ]
      },
      "id": "node/10242479007"
    },
    {
      "type": "Feature",
      "properties": {
        "@id": "node/10250493094",
        "name": "Ribera del Valle",
        "tourism": "hotel"
      },
      "geometry": {
        "type": "Point",
        "coordinates": [
          -71.8801668,
          -13.4157791
        ]
      },
      "id": "node/10250493094"
    },
    {
      "type": "Feature",
      "properties": {
        "@id": "node/10736008205",
        "internet_access": "wlan",
        "name": "Hospedaje Montaña Vinicunca",
        "tourism": "hotel"
      },
      "geometry": {
        "type": "Point",
        "coordinates": [
          -71.5003521,
          -13.9018468
        ]
      },
      "id": "node/10736008205"
    },
    {
      "type": "Feature",
      "properties": {
        "@id": "node/10873953705",
        "addr:housenumber": "470",
        "addr:street": "Nueva Alta",
        "name": "Anais y Nicolas",
        "tourism": "hotel"
      },
      "geometry": {
        "type": "Point",
        "coordinates": [
          -71.9840042,
          -13.5172702
        ]
      },
      "id": "node/10873953705"
    },
    {
      "type": "Feature",
      "properties": {
        "@id": "node/10880096305",
        "addr:block": "F",
        "addr:plot": "21",
        "addr:street": "Sahuasiray",
        "name": "Pisonay",
        "tourism": "hotel"
      },
      "geometry": {
        "type": "Point",
        "coordinates": [
          -71.8528348,
          -13.4214627
        ]
      },
      "id": "node/10880096305"
    },
    {
      "type": "Feature",
      "properties": {
        "@id": "node/10880115305",
        "addr:street": "La Convención",
        "name": "Apu Qhawarina",
        "tourism": "hotel"
      },
      "geometry": {
        "type": "Point",
        "coordinates": [
          -72.2661086,
          -13.257992
        ]
      },
      "id": "node/10880115305"
    },
    {
      "type": "Feature",
      "properties": {
        "@id": "node/10880118205",
        "name": "Be Free",
        "tourism": "hotel"
      },
      "geometry": {
        "type": "Point",
        "coordinates": [
          -72.2628746,
          -13.2574683
        ]
      },
      "id": "node/10880118205"
    },
    {
      "type": "Feature",
      "properties": {
        "@id": "node/10887775905",
        "name": "Hatun Wasi",
        "tourism": "hotel"
      },
      "geometry": {
        "type": "Point",
        "coordinates": [
          -72.5231557,
          -13.1565007
        ]
      },
      "id": "node/10887775905"
    },
    {
      "type": "Feature",
      "properties": {
        "@id": "node/10887795105",
        "name": "La Posada de Olger",
        "tourism": "hotel"
      },
      "geometry": {
        "type": "Point",
        "coordinates": [
          -72.5236495,
          -13.1559283
        ]
      },
      "id": "node/10887795105"
    },
    {
      "type": "Feature",
      "properties": {
        "@id": "node/10896111082",
        "name": "Hospedaje Quechua",
        "tourism": "hotel"
      },
      "geometry": {
        "type": "Point",
        "coordinates": [
          -72.0558043,
          -13.1107009
        ]
      },
      "id": "node/10896111082"
    },
    {
      "type": "Feature",
      "properties": {
        "@id": "node/10897780905",
        "name": "Vila Santa Anna",
        "name:es": "Villa Santa Anna",
        "tourism": "hotel"
      },
      "geometry": {
        "type": "Point",
        "coordinates": [
          -72.693697,
          -12.8627515
        ]
      },
      "id": "node/10897780905"
    },
    {
      "type": "Feature",
      "properties": {
        "@id": "node/10960894684",
        "name": "Imperial Cusco Hotel",
        "tourism": "hotel"
      },
      "geometry": {
        "type": "Point",
        "coordinates": [
          -71.9759712,
          -13.5239172
        ]
      },
      "id": "node/10960894684"
    },
    {
      "type": "Feature",
      "properties": {
        "@id": "node/10969589105",
        "contact:instagram": "ecohomeview_guesthouse",
        "email": "eco.home.view@gmail.com",
        "internet_access": "wlan",
        "name": "Eco Home View",
        "opening_hours": "Mo-Su 06:00-22:00",
        "phone": "+51955014874",
        "tourism": "hotel",
        "website": "https://www.ecohomeview.com.pe"
      },
      "geometry": {
        "type": "Point",
        "coordinates": [
          -71.9797717,
          -13.5142493
        ]
      },
      "id": "node/10969589105"
    },
    {
      "type": "Feature",
      "properties": {
        "@id": "node/10975775601",
        "tourism": "hotel"
      },
      "geometry": {
        "type": "Point",
        "coordinates": [
          -72.0702365,
          -13.4752782
        ]
      },
      "id": "node/10975775601"
    },
    {
      "type": "Feature",
      "properties": {
        "@id": "node/10977920845",
        "facebook": "https://web.facebook.com/sacredexperience.colademonocamp/",
        "name": "Cabañas Cola de Mono",
        "tourism": "hotel"
      },
      "geometry": {
        "type": "Point",
        "coordinates": [
          -72.6068389,
          -13.139501
        ]
      },
      "id": "node/10977920845"
    },
    {
      "type": "Feature",
      "properties": {
        "@id": "node/10989572306",
        "name": "Casa de Ollanta ByB",
        "tourism": "hotel"
      },
      "geometry": {
        "type": "Point",
        "coordinates": [
          -72.2634162,
          -13.256138
        ]
      },
      "id": "node/10989572306"
    },
    {
      "type": "Feature",
      "properties": {
        "@id": "node/11006319896",
        "name": "La Frontera",
        "tourism": "hotel"
      },
      "geometry": {
        "type": "Point",
        "coordinates": [
          -72.0076252,
          -13.5071841
        ]
      },
      "id": "node/11006319896"
    },
    {
      "type": "Feature",
      "properties": {
        "@id": "node/11018926406",
        "internet_access": "wlan",
        "name:en": "Chinchero Boutique Hotel",
        "tourism": "hotel"
      },
      "geometry": {
        "type": "Point",
        "coordinates": [
          -72.0539104,
          -13.4011514
        ]
      },
      "id": "node/11018926406"
    }
  ]
}